carriageway_code,carriageway_configuration,distance_from,latitude,lga,link_no,longitude,region,,suburb,,road_name,road_number,side_of_road
A1,,80.6km North of Armidale,-29.92247,SEVERN,1335,151.72472,NORTHERN REGION,,GLENCOE,,NEW ENGLAND HIGHWAY,9,RIGHT
A2,,21.6km from Wellington,-32.38833,DUBBO REGIONAL,610,148.81613,WESTERN REGION,,GEURIE,,MITCHELL HIGHWAY,7,LEFT
A1,,0.48km East  of  Oxley Hwy Nevertire,-31.84088,WARREN,915,147.72294,WESTERN REGION,,NEVERTIRE,,MITCHELL HIGHWAY,7,LEFT
A1,PHYSICAL SEPARATION,10.1km West of Warialda,-29.58259,GWYDIR,560,150.48888,NORTHERN REGION,,WARIALDA,,GWYDIR HIGHWAY,12,LEFT
A1,,80.6km North of Armidale,-29.92242,SEVERN,1335,151.72421,NORTHERN REGION,,GLENCOE,,NEW ENGLAND HIGHWAY,9,LEFT
A4,,64.5km from Lithgow,-33.71231,BLUE MOUNTAINS,1300,150.52081,SYDNEY WEST ZONE,,LINDEN,,GREAT WESTERN HIGHWAY,5,LEFT
A1,,45km West of Casino,-28.90098,KYOGLE,340,152.65361,NORTHERN REGION,,SANDILANDS,,BRUXNER HIGHWAY,16,LEFT
A1,,3.3km East of Broken Hill,-31.94617,BROKEN HILL,390,141.49601,WESTERN REGION,,BROKEN HILL,,BARRIER HIGHWAY,8,LEFT
U1,PHYSICAL SEPARATION,33.0km north of Coffs Harbour,-30.05999,COFFS HARBOUR,2625,153.18505,NORTHERN REGION,,ARRAWARRA,,Pacific Highway,10,RIGHT
A1,PHYSICAL SEPARATION,58.4km West of Wauchope,-31.40359,PORT MACQUARIE - HASTINGS,350,152.25535,NORTHERN REGION,,MOUNT SEAVIEW,,OXLEY HIGHWAY,11,RIGHT
A2,,42.1km West of Emmdale,-31.70542,CENTRAL DARLING,215,143.84894,WESTERN REGION,,WILCANNIA,,BARRIER HIGHWAY,8,LEFT
A1,,0.1km South of North limit (SH8),-31.7176,CENTRAL DARLING,490,143.46442,WESTERN REGION,,WILCANNIA,,COBB HIGHWAY,21,LEFT
A1,,19.5km South of Parkes,-33.32421,PARKES,2621,148.06686,WESTERN REGION,,FORBES,,NEWELL HIGHWAY,17,RIGHT
A1,,54.7km South of Narrabri,-30.696,NARRABRI,3120,149.53673,WESTERN REGION,,THE PILLIGA,,NEWELL HIGHWAY,17,LEFT
A1,,0.65km West of Grenfell,-33.88508,WEDDIN,510,148.14002,WESTERN REGION,,GRENFELL,,FORBES RD,6,LEFT
A1,,14.2km West of Bellingen,-30.42617,BELLINGEN,60,152.77913,NORTHERN REGION,,THORA,,WATERFALL WAY,76,RIGHT
A1,,57.21km North of Mudgee,-32.14751,MID WESTERN REGIONAL,1270,149.44419,WESTERN REGION,,BIRRIWA,,CASTLEREAGH HIGHWAY,18,LEFT
A1,,5km from Echuca (VIC) and  72km to Deniliquin,-36.08888,MURRAY RIVER,30,144.75014,SOUTH WEST REGION,,MOAMA,,COBB HIGHWAY,21,RIGHT
A1,,NorthWest Coolabah town limit,-31.02701,BOGAN,1065,146.71288,WESTERN REGION,,COOLABAH,,MITCHELL HIGHWAY,7,LEFT
A2,,44.8km West of Emmdale,-31.69501,CENTRAL DARLING,215,143.82354,WESTERN REGION,,WILCANNIA,,BARRIER HIGHWAY,8,RIGHT
A1,,0.35km East of Collarenebri,-29.54994,WALGETT,810,148.58456,WESTERN REGION,,COLLARENEBRI,,MOREE RD,12,LEFT
A1,,32.5km North of Quirindi,-31.29908,LIVERPOOL PLAINS,110,150.49449,NORTHERN REGION,,BREEZA,,KAMILAROI HIGHWAY,29,RIGHT
A2,,36.77km from Mudgee turnoff,-32.82491,MID WESTERN REGIONAL,1110,149.81364,WESTERN REGION,,CUDGEGONG,,CASTLEREAGH HIGHWAY,18,LEFT
A1,,24km from Lithgow,-33.5994,BLUE MOUNTAINS,1521,150.26443,SYDNEY WEST ZONE,,MOUNT VICTORIA,,GREAT WESTERN HWY,5,LEFT
A1,,67kms from Merriwa.,-32.05161,COONABARABRAN,300,149.74964,WESTERN REGION,,UARBRY,,SCONE-DUNEDOO RD,27,LEFT
A3,,58km West of Cobar,-31.55175,COBAR,120,145.20952,WESTERN REGION,,CUBBA,,BARRIER HIGHWAY,8,RIGHT
A1,,0.7km NorthWest of Nyngan,-31.54843,BOGAN,1040,147.169,WESTERN REGION,,NYNGAN,,MITCHELL HIGHWAY,7,LEFT
A1,,5km South of Lightning Ridge turnoff,-29.49362,WALGETT,3285,147.97179,WESTERN REGION,,LIGHTNING RIDGE,,CASTLEREAGH HIGHWAY,18,LEFT
A1,,33.8km from Mudgee turnoff,-33.1677,LITHGOW,1050,149.99861,WESTERN REGION,,CAPERTEE,,CASTLEREAGH HIGHWAY,18,RIGHT
A1,MAIN CARRIAGEWAY,10km from Euston and 69km to Mildura (VIC),-34.53893,BALRANALD,570,142.65197,SOUTH WEST REGION,,EUSTON,,STURT HIGHWAY,14,RIGHT
A2,,8.5km North of Coonabarabran,-31.21829,COONABARABRAN,3100,149.3262,WESTERN REGION,,COONABARABRAN,,NEWELL HIGHWAY,17,LEFT
B1,PHYSICAL SEPARATION,17.2km north of Kempsey,-30.909,KEMPSEY,2310,152.91781,NORTHERN REGION,,CLYBUCCA,,Pacific Highway Collombatti,10,LEFT
A1,PHYSICAL SEPARATION,82.4km West of Wauchope,-31.39916,PORT MACQUARIE - HASTINGS,360,152.10856,NORTHERN REGION,,MOUNT SEAVIEW,,OXLEY HIGHWAY,11,RIGHT
B1,,29.4km North start of Pacific Hwy,-33.61148,HORNSBY,830,151.15895,SYDNEY NORTH ZONE,,COWAN,,PACIFIC HWY,10,RIGHT
A1,,1km from Deniliquin and 121km to Hay,-35.52487,EDWARD RIVER,111,144.97775,SOUTH WEST REGION,,DENILIQUIN,,DAVIDSON ST,21,RIGHT
B2,,82km from Lithgow,-33.76519,BLUE MOUNTAINS,1190,150.62338,SYDNEY WEST ZONE,,GLENBROOK,,GREAT WESTERN HWY,5,LEFT
C1,,100km from Gundagai and  79km to Albury,-35.65675,GREATER HUME,2085,147.43543,SOUTH WEST REGION,,LITTLE BILLABONG,,HUME HIGHWAY,2,RIGHT
C1,,17km South of Goulburn,-34.83683,GOULBURN MULWAREE,1085,149.57982,SOUTHERN REGION,,YARRA,,FEDERAL HIGHWAY,3,RIGHT
A2,,95km West of Moree,-29.45296,MOREE PLAINS,770,149.00557,WESTERN REGION,,BULLARAH,,GWYDIR HIGHWAY,12,LEFT
B3,,57km North of Canberra,-34.90293,GREATER ARGYLE,1070,149.45839,SOUTHERN REGION,,COLLECTOR,,FEDERAL HIGHWAY,3,LEFT
A1,PHYSICAL SEPARATION,23km from Euston and  55km to Mildura (VIC),-34.4644,BALRANALD,570,142.54049,SOUTH WEST REGION,,MALLEE,,STURT HIGHWAY,14,RIGHT
A1,,Coolah Turnoff (Int HW27/MR55),-32.03572,COONABARABRAN,310,149.49237,WESTERN REGION,,LEADVILLE,,SCONE-DUNEDOO RD,27,RIGHT
A2,,9.5km South of Ivanhoe,-32.9628,CENTRAL DARLING,360,144.36591,WESTERN REGION,,IVANHOE,,COBB HIGHWAY,21,RIGHT
A2,,0.7km from Mendooran,-31.8288,COONABARABRAN,2085,149.11328,WESTERN REGION,,MENDOORAN,,CASTLEREAGH HIGHWAY,18,RIGHT
B1,PHYSICAL SEPARATION,67.9km North of Grafton,-29.26235,CLARENCE VALLEY,2942,153.2304,NORTHERN REGION,,JACKY BULBIN FLAT,,PACIFIC HIGHWAY,10,LEFT
A1,PHYSICAL SEPARATION,8.4km North of HW9,-31.56511,LIVERPOOL PLAINS,20,150.69791,NORTHERN REGION,,BRAEFIELD,,KAMILAROI HIGHWAY,29,RIGHT
A1,,14km from Temora and  55km to West Wyalong,-34.33438,TEMORA,110,147.47729,SOUTH WEST REGION,,GIDGINBUNG,,GOLDFIELDS WAY,57,RIGHT
A2,,29.7km East of Blayney,-33.43441,BATHURST REGIONAL,30,149.53292,WESTERN REGION,,ROBIN HILL,,MID WESTERN HIGHWAY,6,LEFT
A1,,0.5km West of Crookwell,-34.4549,UPPER LACHLAN,95,149.46514,SOUTHERN REGION,,CROOKWELL,,CARRINGTON ST,54,RIGHT
A1,,19.5km South of Eden,-37.20492,BEGA VALLEY,2570,149.84435,SOUTHERN REGION,,NARRABARBA,,PRINCES HIGHWAY,1,LEFT
A1,,24km South of Thredbo,-36.53825,SNOWY VALLEYS,50,148.13504,SOUTHERN REGION,,MURRAY GORGE,,ALPINE WAY,677,LEFT
A1,,1.1km West of Walcha,-30.98344,WALCHA,455,151.58181,NORTHERN REGION,,WALCHA,,FITZROY STREET,11,RIGHT
A1,,,-30.00549,WALGETT,530,148.61279,WESTERN REGION,,CRYON,,KAMILAROI HIGHWAY,29,LEFT
A2,,37.55km East of Cowra,-33.6744,BLAYNEY,200,149.02525,WESTERN REGION,,LYNDHURST,,MID WESTERN HIGHWAY,6,LEFT
A1,,102.1km from Muswellbrook,-31.53822,LIVERPOOL PLAINS,840,150.83136,NORTHERN REGION,,WALLABADAH,,NEW ENGLAND HIGHWAY,9,LEFT
A4,,19km from West Wyalong and  86km to Forbes,-33.85606,BLAND,2490,147.37711,SOUTH WEST REGION,,BACK CREEK,,NEWELL HIGHWAY,17,RIGHT
A1,,15km South of Bourke,-30.23411,BOURKE,120,145.93322,WESTERN REGION,,BOURKE,,COBAR-NR BOURKE RD,421,LEFT
A1,PHYSICAL SEPARATION,91 km from Hay and 40km to Balranald,-34.72314,MURRAY RIVER,420,143.92719,SOUTH WEST REGION,,KERI KERI,,STURT HIGHWAY,14,RIGHT
C3,,53km South of Goulburn,-35.06761,QUEANBEYAN-PALERANG,1052,149.37379,SOUTHERN REGION,,LAKE GEORGE,,FEDERAL HIGHWAY,3,RIGHT
C1,,9km South of Goulburn,-34.78708,GREATER ARGYLE,1245,149.64011,SOUTHERN REGION,,YARRA,,HUME HWY N/BOUND,2,RIGHT
A1,,8.1km East of Lithgow,-33.5261,LITHGOW,1570,150.15377,WESTERN REGION,,HARTLEY,,GREAT WESTERN HIGHWAY,5,LEFT
A1,,44.5km from Dubbo (SH7),-32.52183,NARROMINE,2780,148.27968,WESTERN REGION,,TOMINGLEY,,NEWELL HIGHWAY,17,LEFT
A1,,9km West of Jindabyne,-36.36932,SNOWY MONARO REGIONAL,140,148.58909,SOUTHERN REGION,,KOSCIUSZKO NATIONAL PARK,,KOSCIUSZKO ROAD,286,LEFT
B1,,31km South of Mittagong,-34.61348,WINGECARRIBEE,1087,150.22009,SOUTHERN REGION,,SUTTON FOREST,,HUME HIGHWAY,2,LEFT
A1,,0.8km North of Bingara,-29.864,GWYDIR,310,150.576,NORTHERN REGION,,BINGARA,,EAST STREET,63,RIGHT
A4,,36km from West Wyalong and  69km to Forbes,-33.76661,BLAND,2490,147.51693,SOUTH WEST REGION,,BACK CREEK,,NEWELL HIGHWAY,17,LEFT
A1,,7.80km South of Dubbo (SH7),-32.29598,DUBBO REGIONAL,2800,148.54958,WESTERN REGION,,DUBBO,,NEWELL HIGHWAY,17,RIGHT
A1,,0.3km North of Barraba,-30.37537,TAMWORTH,205,150.61136,NORTHERN REGION,,BARRABA,,QUEEN STREET,63,RIGHT
C2,,66km South of Goulburn,-35.16559,QUEANBEYAN-PALERANG,1031,149.30866,SOUTHERN REGION,,BYWONG,,FEDERAL HIGHWAY,3,RIGHT
A1,,5.3km East of Carragable,-33.85012,WEDDIN,570,147.80652,WESTERN REGION,,CARAGABAL,,MID WESTERN HIGHWAY,6,RIGHT
A2,,20km West of Bulli,-34.21704,WOLLONDILLY,50,150.80442,SOUTHERN REGION,,APPIN,,APPIN RD,177,LEFT
A2,,87km from Narrandera and 49km to West Wyalong,-34.33258,COOLAMON,2380,147.08636,SOUTH WEST REGION,,BECKOM,,NEWELL HIGHWAY,17,LEFT
A1,,47.2km West of Nyngan,-31.5483,BOGAN,30,146.70842,WESTERN REGION,,HERMIDALE,,BARRIER HIGHWAY,8,LEFT
B3,,134km from Gundagai and  46km to Albury,-35.84447,GREATER HUME,2185,147.19783,SOUTH WEST REGION,,WOOMARGAMA,,HUME HIGHWAY,2,LEFT
A1,,20.004km from Lithgow,-33.58325,BLUE MOUNTAINS,1540,150.24119,WESTERN REGION,,MOUNT VICTORIA,,GREAT WESTERN HIGHWAY,5,LEFT
A1,,43.8km East of Grenfell,-33.84223,COWRA,380,148.60111,WESTERN REGION,,COWRA,,MID WESTERN HIGHWAY,6,LEFT
A1,,6km West of Bemboka,-36.61386,BEGA VALLEY,160,149.50309,SOUTHERN REGION,,BEMBOKA,,SNOWY MOUNTAINS HIGHWAY,4,RIGHT
A2,,38.3km North of Tamworth,-30.8042,TAMWORTH,60,150.75324,NORTHERN REGION,,KLORI,,TAMWORTH-YETMAN RD,63,LEFT
A3,,50.48km from Dubbo,-32.56948,PARKES,2760,148.22168,WESTERN REGION,,TOMINGLEY,,CASWELL ST,17,RIGHT
A1,PHYSICAL SEPARATION,79km from Narrandera and  95km to Hay,-34.57419,MURRUMBIDGEE,310,145.79164,SOUTH WEST REGION,,DARLINGTON POINT,,STURT HIGHWAY,14,LEFT
A1,,7.47km S of Warren (Dubbo St),-31.74856,WARREN,1150,147.78347,WESTERN REGION,,RED HILL,,OXLEY HIGHWAY,11,LEFT
C2,,5km North of Marulan,-34.69163,WINGECARRIBEE,1105,150.03207,SOUTHERN REGION,,MARULAN,,HUME HIGHWAY,2,RIGHT
A1,,16.6km West of Wilcannia,-31.56864,CENTRAL DARLING,300,143.21673,WESTERN REGION,,WILCANNIA,,BARRIER HIGHWAY,8,LEFT
A1,,31km South of Jindabyne,-36.4832,SNOWY MONARO REGIONAL,20,148.34665,SOUTHERN REGION,,KOSCIUSZKO NATIONAL PARK,,ALPINE WAY,677,LEFT
A1,,19.5km South of Parkes,-33.32319,PARKES,2621,148.0612,WESTERN REGION,,FORBES,,NEWELL HIGHWAY,17,LEFT
A2,,9km North of Stanwell Park,-34.18449,WOLLONGONG,30,151.01841,SOUTHERN REGION,,LILYVALE,,LADY WAKEHURST DR,393,LEFT
A1,PHYSICAL SEPARATION,55.6km West of Inverell,-29.56968,GWYDIR,510,150.62,NORTHERN REGION,,WARIALDA,,GWYDIR HIGHWAY,12,LEFT
B2,,6km from Gundagai and 174km to Albury,-35.10838,COOTAMUNDRA-GUNDAGAI REGIONAL,1945,148.05718,SOUTH WEST REGION,,SOUTH GUNDAGAI,,HUME HIGHWAY,2,LEFT
A1,,21.9km North of Gilgrandra,-31.56395,GILGANDRA,2990,148.79495,WESTERN REGION,,BIDDON,,NEWELL HIGHWAY,17,RIGHT
C1,,23km South of Goulburn,-34.80339,GREATER ARGYLE,1315,149.49446,SOUTHERN REGION,,BREADALBANE,,HUME HWY S/BOUND,2,RIGHT
A1,,1.8km West of Cobar,-31.49783,COBAR,90,145.82001,WESTERN REGION,,COBAR,,BARRIER HIGHWAY,8,RIGHT
A1,,0.6km West of Glen Innes,-29.7349,SEVERN,300,151.73437,NORTHERN REGION,,GLEN INNES,,FERGUSON STREET,12,RIGHT
A2,,86.29km North of Cobar,-30.63736,BOURKE,100,145.87247,WESTERN REGION,,GUNDERBOOKA,,COBAR-NR BOURKE RD,421,LEFT
A3,,At Forbes Rd Turn Off,-33.24532,CABONNE,40,148.81421,WESTERN REGION,,BOREE,,ORANGE-PARKES RD,61,LEFT
A1,,48.1km South of Narrabri (Newell Hwy),-30.65568,NARRABRI,250,150.04168,WESTERN REGION,,BOGGABRI,,KAMILAROI HIGHWAY,29,LEFT
A1,,40km from Hillston and  215km to Cobar,-33.31732,CARRATHOOL,15,145.84024,SOUTH WEST REGION,,WALLANTHERY,,KIDMAN WAY,410,RIGHT
A2,,20km from Cootamundra and  29km to Young,-34.52999,COOTAMUNDRA-GUNDAGAI REGIONAL,480,148.16286,SOUTH WEST REGION,,WALLENDBEEN,,OLYMPIC HIGHWAY,78,LEFT
A1,,60.3km West of Inverell,-29.5457,GWYDIR,510,150.582,NORTHERN REGION,,WARIALDA,,GWYDIR HIGHWAY,12,RIGHT
A1,,22.5km from Dubbo (SH7),-32.39193,DUBBO REGIONAL,2790,148.43432,WESTERN REGION,,DUBBO,,NEWELL HIGHWAY,17,LEFT
B1,PHYSICAL SEPARATION,,-31.24847,PORT MACQUARIE - HASTINGS,2245,152.82109,NORTHERN REGION,,COOPERABUNG,,PACIFIC HIGHWAY,10,LEFT
A1,,0.7km West of Warialda,-29.54299,GWYDIR,550,150.56866,NORTHERN REGION,,WARIALDA,,MOREE ROAD,12,LEFT
A1,,1.5km from Warren,-31.71347,WARREN,1150,147.8195,WESTERN REGION,,WARREN,,OXLEY HIGHWAY,11,LEFT
A1,,0km from Jingellic and 43 km to Tumbarumba,-35.92589,SNOWY VALLEYS,20,147.698,SOUTH WEST REGION,,JINGELLIC,,JINGELLIC RD,85,RIGHT
A2,,54.6km West of Topar Roadhouse,-31.91065,UNINCORPORATED NSW,385,141.66423,WESTERN REGION,,BROKEN HILL,,BARRIER HIGHWAY,8,RIGHT
A1,,79km from Gilgrandra (4.3km N Warren),-31.66711,WARREN,1100,147.85822,WESTERN REGION,,BEEMUNNEL,,OXLEY HIGHWAY,11,RIGHT
A2,,79km from Narrandera and 57km to West Wyalong,-34.3361,COOLAMON,2370,147.01442,SOUTH WEST REGION,,BECKOM,,NEWELL HIGHWAY,17,LEFT
A1,,93.8km North of Mount Hope,-32.04108,COBAR,115,145.99681,WESTERN REGION,,NYMAGEE,,KIDMAN WAY,410,LEFT
A1,,West Grenfell,-33.89035,WEDDIN,510,148.14512,WESTERN REGION,,GRENFELL,,FORBES RD,6,RIGHT
A2,MAIN CARRIAGEWAY,50.7km North of Grafton,-29.30864,RICHMOND VALLEY,170,152.99695,NORTHERN REGION,,WHIPORIE,,SUMMERLAND WAY,83,RIGHT
A4,,37km from Junee and  15km to Cootamundra,-34.71983,JUNEE,380,147.90429,SOUTH WEST REGION,,COOTAMUNDRA,,OLYMPIC HIGHWAY,78,LEFT
A1,,At Nimmitabel,-36.51503,SNOWY MONARO REGIONAL,1170,149.28211,SOUTHERN REGION,,NIMMITABEL,,BOMBALA ST,19,LEFT
A6,,14.1km North of Kyogle,-28.5063,KYOGLE,410,152.967,NORTHERN REGION,,WIANGAREE,,SUMMERLAND WAY,83,LEFT
A1,,3.5km NorthWest of Girilambone,-31.22023,BOGAN,1065,146.87893,WESTERN REGION,,GIRILAMBONE,,MITCHELL HIGHWAY,7,LEFT
A1,,55.5km North of Moree,-29.03578,MOREE PLAINS,3350,150.05719,WESTERN REGION,,MOREE,,NEWELL HIGHWAY,17,RIGHT
A1,,62.5km North of Coonamble (Aberford St),-30.46798,COONAMBLE,3180,148.19451,WESTERN REGION,,WINGADEE,,CASTLEREAGH HIGHWAY,18,LEFT
A1,,19.5km SouthEast of Bourke,-30.24572,BOURKE,1141,146.05863,WESTERN REGION,,BOURKE,,MITCHELL HIGHWAY,7,LEFT
A2,,7km from West Wyalong and  97km to Forbes,-33.91563,BLAND,2480,147.27803,SOUTH WEST REGION,,WYALONG,,NEWELL HIGHWAY,17,RIGHT
B2,,22km from Fish River bridge,-33.76489,BLUE MOUNTAINS,1190,150.62336,SYDNEY WEST ZONE,,GLENBROOK,,GREAT WESTERN HWY,5,LEFT
A2,,7km West of Bungendore,-35.31062,QUEANBEYAN-PALERANG,160,149.40545,SOUTHERN REGION,,BUNGENDORE,,BATEMANS BAY-QUEANBEYAN RD,51,LEFT
A3,,2km West of Tamworth,-31.07773,TAMWORTH REGIONAL,630,150.85029,NORTHERN REGION,,WESTDALE,,OXLEY HIGHWAY,11,RIGHT
A1,,0.8km E of Dandaloo St (MR347) Trangie,-32.03048,NARROMINE,865,147.9906,WESTERN REGION,,TRANGIE,,MITCHELL HIGHWAY,7,RIGHT
B2,,30km from Gundagai and 149km to Albury,-35.17961,WAGGA WAGGA,1981,147.82624,SOUTH WEST REGION,,MUNDARLO,,HUME HIGHWAY,2,LEFT
B1,,91km from Gundagai and  89km to Albury,-35.60009,GREATER HUME,2085,147.51069,SOUTH WEST REGION,,LITTLE BILLABONG,,HUME HIGHWAY,2,LEFT
A2,,102km from Narrandera and 34km to West Wyalong,-34.19892,COOLAMON,2380,147.11058,SOUTH WEST REGION,,ARIAH PARK,,NEWELL HIGHWAY,17,RIGHT
B2,,7km South of Goulburn,-34.78364,GOULBURN MULWAREE,1245,149.66178,SOUTHERN REGION,,RUN-O-WATERS,,HUME HIGHWAY,2,LEFT
A4,,8km from Young and  63km to Cowra,-34.28762,HILLTOPS,600,148.3546,SOUTH WEST REGION,,YOUNG,,OLYMPIC HIGHWAY,78,LEFT
A1,,26km South of Jindabyne,-36.45818,SNOWY MONARO REGIONAL,20,148.38706,SOUTHERN REGION,,KOSCIUSZKO NATIONAL PARK,,ALPINE WAY,677,RIGHT
C1,,15km North of Mittagong,-34.3551,WINGECARRIBEE,897,150.54052,SOUTHERN REGION,,YERRINBOOL,,HUME HIGHWAY,2,RIGHT
A1,,5km South of Thredbo,-36.52287,SNOWY MONARO REGIONAL,40,148.26225,SOUTHERN REGION,,KOSCIUSZKO NATIONAL PARK,,ALPINE WAY,677,LEFT
A1,,35.4km West of Cudal,-33.40145,CABONNE,90,148.40976,WESTERN REGION,,EUGOWRA,,BOREE-EUGOWRA RD,377,LEFT
A1,,88km North of Moree,-29.03709,MOREE PLAINS,230,149.26132,WESTERN REGION,,WEEMELAH,,CARNARVON HIGHWAY,28,RIGHT
A1,,30.29km from Lithgow,-33.64643,BLUE MOUNTAINS,1490,150.28419,SYDNEY WEST ZONE,,BLACKHEATH,,GREAT WESTERN HWY,5,RIGHT
A2,PHYSICAL SEPARATION,69.5km North of Tamworth,-30.75289,URALLA,1082,151.38376,NORTHERN REGION,,KENTUCKY,,NEW ENGLAND HIGHWAY,9,LEFT
A2,,32km North of Batemans Bay,-35.48479,SHOALHAVEN,1840,150.33916,SOUTHERN REGION,,TERMEIL,,PRINCES HIGHWAY,1,RIGHT
A1,PHYSICAL SEPARATION,128km from Hay and  3km to Balranald,-34.66626,MURRAY RIVER,441,143.56301,SOUTH WEST REGION,,BALRANALD,,STURT HIGHWAY,14,LEFT
A2,,205.3km West of Cobar,-31.69518,CENTRAL DARLING,215,143.81494,WESTERN REGION,,WILCANNIA,,BARRIER HIGHWAY,8,LEFT
B1,,At Jindabyne,-36.41565,SNOWY MONARO REGIONAL,100,148.62424,SOUTHERN REGION,,JINDABYNE,,KOSCIUSZKO ROAD,286,LEFT
A1,,37km from Jingellic and  7km to Tumbarumba,-35.77965,SNOWY VALLEYS,40,147.94379,SOUTH WEST REGION,,TUMBARUMBA,,JINGELLIC RD,85,LEFT
A1,,90.8km from West Wyalong and 164.656km to Hay,-33.84114,BLAND,721,146.26415,SOUTH WEST REGION,,RANKINS SPRINGS,,MID WESTERN HIGHWAY,6,RIGHT
A1,,89km North of Glen Innes,-29.0689,TENTERFIELD,1480,152.01401,NORTHERN REGION,,TENTERFIELD,,NEW ENGLAND HIGHWAY,9,RIGHT
B1,PHYSICAL SEPARATION,58.2km North of Ballina,-28.42383,BYRON,3305,153.52032,NORTHERN REGION,,SLEEPY HOLLOW,,PACIFIC HIGHWAY,10,LEFT
A2,,45km West of Casino,-28.90078,KYOGLE,350,152.65355,NORTHERN REGION,,SANDILANDS,,BRUXNER HIGHWAY,16,RIGHT
A1,,1.7km from Kurmond turn off,-33.53766,HAWKESBURY,1020,150.83552,SYDNEY WEST ZONE,,WILBERFORCE,,THE PUTTY RD,503,LEFT
A2,,16.4km South of Narrabri,-30.43706,NARRABRI,3140,149.67853,WESTERN REGION,,BOHENA CREEK,,NEWELL HIGHWAY,17,LEFT
A1,PHYSICAL SEPARATION,82km from Wentworth and 185km to Broken Hill,-33.46355,WENTWORTH,120,141.71043,SOUTH WEST REGION,,ANABRANCH SOUTH,,SILVER CITY HIGHWAY,22,LEFT
A1,,10km from Culcairn and  67km to Wagga Wagga,-35.57921,GREATER HUME,100,147.04068,SOUTH WEST REGION,,HENTY,,OLYMPIC HIGHWAY,78,LEFT
A1,,1km SouthEast of Byrock,-30.67264,BOGAN,1081,146.41017,WESTERN REGION,,BYROCK,,MITCHELL HIGHWAY,7,RIGHT
A1,,Byrock,-30.66313,BOGAN,1081,146.40377,WESTERN REGION,,BYROCK,,MITCHELL HIGHWAY,7,RIGHT
A1,,14km from Temora and  55km to West Wyalong,-34.33438,TEMORA,110,147.47729,SOUTH WEST REGION,,GIDGINBUNG,,GOLDFIELDS WAY,57,LEFT
A2,,38km from Gundagai and  43km to Wagga Wagga,-35.21775,WAGGA WAGGA,25,147.77866,SOUTH WEST REGION,,TARCUTTA,,STURT HIGHWAY,14,LEFT
A1,,31.491km South of Forbes,-33.52376,FORBES,2520,147.7327,WESTERN REGION,,WIRRINYA,,NEWELL HIGHWAY,17,LEFT
A1,,99km from West Wyalong and 156km to Hay,-33.87268,CARRATHOOL,745,146.18424,SOUTH WEST REGION,,RANKINS SPRINGS,,MID WESTERN HIGHWAY,6,LEFT
A3,,41km South of Bombala,-37.2248,SNOWY MONARO REGIONAL,1010,149.28631,SOUTHERN REGION,,ROCKTON,,MONARO HIGHWAY,19,LEFT
A1,,190.3km West of Wilcannia,-31.93762,BROKEN HILL,390,141.51834,WESTERN REGION,,BROKEN HILL,,BARRIER HIGHWAY,8,LEFT
A2,,159.1km West of Cobar,-31.65282,CENTRAL DARLING,180,144.26782,WESTERN REGION,,WILCANNIA,,BARRIER HIGHWAY,8,LEFT
A2,,31.1km North of Coonabarabran,-31.03232,COONABARABRAN,3110,149.39957,WESTERN REGION,,DANDRY,,NEWELL HIGHWAY,17,RIGHT
A1,PHYSICAL SEPARATION,15km from Balranald and  64km to Euston,-34.62197,BALRANALD,490,143.40072,SOUTH WEST REGION,,BALRANALD,,STURT HIGHWAY,14,LEFT
A1,,0.3km North of Dubbo,-32.18573,DUBBO REGIONAL,2890,148.62192,WESTERN REGION,,BROCKLEHURST,,NEWELL HIGHWAY,17,RIGHT
A1,,11.8km East of Grenfell,-33.9101,WEDDIN,410,148.29982,WESTERN REGION,,GRENFELL,,MID WESTERN HIGHWAY,6,LEFT
B4,,5.5km South of Kiama,-34.71176,KIAMA,1448,150.8413,SOUTHERN REGION,,GERRINGONG,,PRINCES HIGHWAY,1,LEFT
A1,,0.7km East of Cowra,-33.82557,COWRA,275,148.72123,WESTERN REGION,,COWRA,,BATHURST RD,6,RIGHT
A2,,10km East of Appin,-34.25499,WOLLONGONG,45,150.86906,SOUTHERN REGION,,CATARACT,,APPIN RD,177,RIGHT
B1,,26km South of Mittagong,-34.57934,WINGECARRIBEE,1045,150.25342,SOUTHERN REGION,,SUTTON FOREST,,HUME HIGHWAY,2,LEFT
A1,,74.9km North of Bourke,-29.5026,BOURKE,1270,145.81174,WESTERN REGION,,ENNGONIA,,MITCHELL HIGHWAY,7,RIGHT
A1,,87.8km North of Tamworth,-30.63876,URALLA,1135,151.50675,NORTHERN REGION,,URALLA,,BRIDGE STREET,9,RIGHT
A2,,58km from Hay and 151km to Ivanhoe,-34.03166,HAY,280,144.82599,SOUTH WEST REGION,,BOOLIGAL,,COBB HIGHWAY,21,RIGHT
A3,,175km North of Broken Hill,-30.60169,UNINCORPORATED NSW,400,141.964,WESTERN REGION,,PACKSADDLE,,SILVER CITY HIGHWAY,22,RIGHT
A1,,16km South of Narooma,-36.32257,EUROBODALLA,2216,150.07167,SOUTHERN REGION,,TILBA TILBA,,PRINCES HIGHWAY,1,RIGHT
A1,,39km from Hillston and  216km to Cobar,-33.3209,CARRATHOOL,15,145.83558,SOUTH WEST REGION,,WALLANTHERY,,KIDMAN WAY,410,LEFT
A1,,35km West of Bega,-36.63384,BEGA VALLEY,140,149.57734,SOUTHERN REGION,,BEMBOKA,,SNOWY MOUNTAINS HIGHWAY,4,RIGHT
A1,,38km from West Wyalong,-33.75625,WEDDIN,2505,147.5275,WESTERN REGION,,CARAGABAL,,NEWELL HIGHWAY,17,RIGHT
A1,PHYSICAL SEPARATION,152.6km West Grafton,-29.7239,SEVERN,261,151.78799,NORTHERN REGION,,GLEN INNES,,GWYDIR HIGHWAY,12,RIGHT
A1,PHYSICAL SEPARATION,59km from Balranald and  21km to Euston,-34.52903,BALRANALD,520,142.93814,SOUTH WEST REGION,,EUSTON,,STURT HIGHWAY,14,LEFT
A2,,5km from West Wyalong and  99km to Forbes,-33.92495,BLAND,2480,147.25547,SOUTH WEST REGION,,WYALONG,,NEWELL HIGHWAY,17,LEFT
A1,,21.860km North of Tamworth,-31.019,TAMWORTH,1014,151.07001,NORTHERN REGION,,MOONBI,,NEW ENGLAND HIGHWAY,9,LEFT
A2,,35.5km East of Cobar,-31.53027,COBAR,50,146.22162,WESTERN REGION,,CANBELEGO,,BARRIER HIGHWAY,8,RIGHT
A1,,1.8km North of Stanwell Park,-34.22388,WOLLONGONG,10,150.99732,SOUTHERN REGION,,STANWELL TOPS,,LADY WAKEHURST DR,393,RIGHT
A2,,43km from Tumbarumba and  26km to Tumut,-35.47123,SNOWY VALLEYS,140,148.14733,SOUTH WEST REGION,,BATLOW,,BATLOW RD,85,LEFT
C1,PHYSICAL SEPARATION,59.3km North of Ballina,-28.41424,BYRON,3305,153.52543,NORTHERN REGION,,SLEEPY HOLLOW,,PACIFIC HIGHWAY,10,RIGHT
A2,,85.15km from Mudgee turnoff,-32.79754,MID WESTERN REGIONAL,1110,149.79755,WESTERN REGION,,CUDGEGONG,,CASTLEREAGH HIGHWAY,18,RIGHT
A1,,24km from Tumut and  77km to Wagga Wagga,-35.3122,SNOWY VALLEYS,621,148.02769,SOUTH WEST REGION,,SANDY GULLY,,SNOWY MOUNTAINS HIGHWAY,4,RIGHT
A1,,19.6km from Gilgrandra (22.4km to SH17),-31.65774,GILGANDRA,1040,148.4476,WESTERN REGION,,COLLIE,,OXLEY HIGHWAY,11,RIGHT
A2,,45.8km West of Emmdale,-31.69479,CENTRAL DARLING,215,143.81441,WESTERN REGION,,WILCANNIA,,BARRIER HIGHWAY,8,RIGHT
A1,,74.3km West of Wicannia,-31.72307,UNINCORPORATED NSW,330,142.68559,WESTERN REGION,,LITTLE TOPAR,,BARRIER HIGHWAY,8,RIGHT
B1,,66.67km north of Port Macquarie,-30.62643,NAMBUCCA,2415,152.97234,NORTHERN REGION,,VALLA,,Pacific Highway,10,LEFT
A3,,40km South of Bombala,-37.223,SNOWY MONARO REGIONAL,1010,149.29268,SOUTHERN REGION,,BONDI FOREST,,MONARO HIGHWAY,19,LEFT
A2,PHYSICAL SEPARATION,79.4km North of Grafton,-29.15465,TENTERFIELD,1470,152.00171,NORTHERN REGION,,TENTERFIELD,,NEW ENGLAND HIGHWAY,9,RIGHT
C1,,14km South of Goulburn,-34.81698,GOULBURN MULWAREE,1085,149.60241,SOUTHERN REGION,,YARRA,,FEDERAL HIGHWAY,3,RIGHT
A1,,4km North of Stanwell Park,-34.21156,WOLLONGONG,20,151.01042,SOUTHERN REGION,,OTFORD,,LADY WAKEHURST DR,393,RIGHT
A2,,51.7km North of Coonabarabran,-30.85391,COONABARABRAN,3110,149.45718,WESTERN REGION,,THE PILLIGA,,NEWELL HIGHWAY,17,RIGHT
A2,,18.76km from Bathurst,-33.43215,BATHURST REGIONAL,70,149.38039,WESTERN REGION,,VITTORIA,,MITCHELL HIGHWAY,7,RIGHT
A1,PHYSICAL SEPARATION,10.0km North of Glen Innes,-29.65896,SEVERN,1410,151.78014,NORTHERN REGION,,YARROWFORD,,NEW ENGLAND HIGHWAY,9,LEFT
A1,,20.5km South of Parkes,-33.28962,PARKES,2621,148.08818,WESTERN REGION,,DAROOBALGIE,,NEWELL HIGHWAY,17,RIGHT
A3,,174km North of Broken Hill,-30.6106,UNINCORPORATED NSW,400,141.96651,WESTERN REGION,,PACKSADDLE,,SILVER CITY HIGHWAY,22,RIGHT
A3,,49.2km West of Broken Hill,-32.07824,UNINCORPORATED NSW,510,141.00259,WESTERN REGION,,BROKEN HILL,,BARRIER HIGHWAY,8,LEFT
C1,,25.19km from Lithgow,-33.60723,BLUE MOUNTAINS,1515,150.27036,SYDNEY WEST ZONE,,BLACKHEATH,,GREAT WESTERN HWY,5,RIGHT
A4,PHYSICAL SEPARATION,75.8km North of Grafton,-29.08809,RICHMOND VALLEY,190,153.00179,NORTHERN REGION,,ELLANGOWAN,,SUMMERLAND WAY,83,RIGHT
C1,,15km North of Goulburn,-34.74365,GREATER ARGYLE,1150,149.88686,SOUTHERN REGION,,MARULAN,,HUME HIGHWAY,2,RIGHT
A1,PHYSICAL SEPARATION,2km from Hay and 130km to Balranald,-34.5206,HAY,376,144.83892,SOUTH WEST REGION,,HAY SOUTH,,MOAMA ST,14,LEFT
A3,,12.4km from Kurmond turn off,-33.46153,HAWKESBURY,1070,150.81332,SYDNEY WEST ZONE,,BLAXLANDS RIDGE,,THE PUTTY RD,503,LEFT
B1,,6km North of Kiama,-34.63001,SHELLHARBOUR,1362,150.83553,SOUTHERN REGION,,DUNMORE,,PRINCES HIGHWAY,1,LEFT
A3,,7.2km West of Broken Hill,-31.97166,BROKEN HILL,500,141.412,WESTERN REGION,,BROKEN HILL,,BARRIER HIGHWAY,8,RIGHT
A1,,20km from Echuca (VIC) and  56km to Deniliquin,-35.98429,MURRAY RIVER,40,144.8456,SOUTH WEST REGION,,MOAMA,,COBB HIGHWAY,21,RIGHT
A1,,1.3km West of Dorrigo,-30.3414,BELLINGEN,120,152.7005,NORTHERN REGION,,DORRIGO,,WATERFALL WAY,76,LEFT
A2,,46.2km South of Ivanhoe,-33.25067,CENTRAL DARLING,332,144.56634,WESTERN REGION,,MOSSGIEL,,COBB HIGHWAY,21,LEFT
A1,,1.0km North of Tenterfield,-29.04633,TENTERFIELD,1500,152.02049,NORTHERN REGION,,TENTERFIELD,,ROUSE ST,9,LEFT
A2,,41km from Cootamundra and  8km to Young,-34.37445,HILLTOPS,505,148.26001,SOUTH WEST REGION,,YOUNG,,OLYMPIC HIGHWAY,78,LEFT
A1,,115.2km West of Cobar,-31.55848,COBAR,160,144.62635,WESTERN REGION,,NOONA,,BARRIER HIGHWAY,8,LEFT
A3,,16km from Kurmond turn off,-33.43722,HAWKESBURY,1070,150.82522,SYDNEY WEST ZONE,,BLAXLANDS RIDGE,,THE PUTTY RD,503,LEFT
B1,,45km North of Canberra,-34.98814,QUEANBEYAN-PALERANG,1062,149.38693,SOUTHERN REGION,,LAKE GEORGE,,FEDERAL HIGHWAY,3,LEFT
A1,,3.25km South of Dubbo (SH7),-32.27233,DUBBO REGIONAL,2800,148.57733,WESTERN REGION,,DUBBO,,NEWELL HIGHWAY,17,LEFT
C5,,61km from Lithgow,-33.72658,BLUE MOUNTAINS,1310,150.49069,SYDNEY WEST ZONE,,WOODFORD,,GREAT WESTERN HWY,5,RIGHT
A1,,2km from Hay and 129km to Balranald,-34.52036,HAY,380,144.82958,SOUTH WEST REGION,,HAY SOUTH,,STURT HIGHWAY,14,LEFT
A2,,172.9km West of Cobar,-31.7138,CENTRAL DARLING,201,144.14273,WESTERN REGION,,WILCANNIA,,BARRIER HIGHWAY,8,RIGHT
A1,,39km from Lithgow,-33.53725,HAWKESBURY,540,150.43901,SYDNEY WEST ZONE,,BERAMBING,,BELLS LINE OF RD,184,RIGHT
A3,,1km North of Brocklehurst,-32.17145,DUBBO REGIONAL,2900,148.61864,WESTERN REGION,,BROCKLEHURST,,NEWELL HIGHWAY,17,LEFT
A2,,34km West of Goulburn,-34.51971,UPPER LACHLAN,70,149.55493,SOUTHERN REGION,,PEJAR,,CROOKWELL ROAD,54,LEFT
A3,,141.1km North of Wentworth,-32.97997,UNINCORPORATED NSW,150,141.62261,WESTERN REGION,,SCOTIA,,SILVER CITY HIGHWAY,22,RIGHT
B1,,106.78km North of Kempsey,-30.3188,COFFS HARBOUR,2490,153.09,NORTHERN REGION,,COFFS HARBOUR,,PACIFIC HIGHWAY,10,LEFT
A1,,28.6km North of Gilgrandra,-31.51721,GILGANDRA,3000,148.82825,WESTERN REGION,,BIDDON,,NEWELL HIGHWAY,17,RIGHT
A1,,74.9km North of Bourke,-29.5026,BOURKE,1270,145.81155,WESTERN REGION,,ENNGONIA,,MITCHELL HIGHWAY,7,LEFT
A1,,0.3km North of Dubbo,-32.18519,DUBBO REGIONAL,2890,148.62177,WESTERN REGION,,BROCKLEHURST,,NEWELL HIGHWAY,17,LEFT
A2,PHYSICAL SEPARATION,54.4km North of Tamworth,-30.80559,TAMWORTH,1072,151.25573,NORTHERN REGION,,BENDEMEER,,NEW ENGLAND HIGHWAY,9,LEFT
C1,PHYSICAL SEPARATION,49.0km North of Ballina,-28.49192,BYRON,3275,153.52283,NORTHERN REGION,,BILLINUDGEL,,PACIFIC HIGHWAY,10,RIGHT
A1,,109.5km South of Cobar,-32.41787,COBAR,65,146.03456,WESTERN REGION,,GILGUNNIA,,KIDMAN WAY,410,RIGHT
A1,,North Edgeroi,-30.11326,NARRABRI,3231,149.79918,WESTERN REGION,,EDGEROI,,NEWELL HIGHWAY,17,RIGHT
A2,,At Appin,-34.19944,WOLLONDILLY,60,150.78889,SOUTHERN REGION,,APPIN,,APPIN RD,177,RIGHT
A3,PHYSICAL SEPARATION,95.8km North of Armidale,-29.78722,SEVERN,1350,151.73195,NORTHERN REGION,,GLEN INNES,,NEW ENGLAND HIGHWAY,9,RIGHT
A1,,1km North of Forbes,-33.34707,FORBES,2610,148.03236,WESTERN REGION,,FORBES,,PARKES RD,17,LEFT
A1,,7.9km North of Moree,-29.42011,MOREE PLAINS,3325,149.90399,WESTERN REGION,,MOREE,,NEWELL HIGHWAY,17,LEFT
A1,,29.1km from Lithgow,-33.63709,BLUE MOUNTAINS,1490,150.28501,SYDNEY WEST ZONE,,BLACKHEATH,,GREAT WESTERN HWY,5,LEFT
A3,,0.43km South of Newell Hwy,-31.39199,COONABARABRAN,40,149.25511,WESTERN REGION,,WATTLE SPRINGS,,MENDOORAN-BELAR CREEK RD,334,LEFT
A2,,50.3km West of Dorrigo,-30.42511,ARMIDALE REGIONAL,180,152.32438,NORTHERN REGION,,EBOR,,WATERFALL WAY,76,LEFT
A1,,17km from Junee and 36km to Cootamundra,-34.81573,JUNEE,361,147.73869,SOUTH WEST REGION,,ILLABO,,OLYMPIC HIGHWAY,78,RIGHT
A2,,North Parkes (80km Speed Signs),-33.11264,PARKES,2700,148.17482,WESTERN REGION,,PARKES,,DUBBO RD,17,RIGHT
A2,PHYSICAL SEPARATION,110.9km West of Dorrigo,-30.5441,ARMIDALE REGIONAL,280,151.79453,NORTHERN REGION,,METZ,,WATERFALL WAY,76,RIGHT
A2,,39.4km North of Gilgrandra,-31.46919,GILGANDRA,3020,148.92047,WESTERN REGION,,TOORAWEENAH,,NEWELL HIGHWAY,17,LEFT
A1,PHYSICAL SEPARATION,21.5km North of Tamworth,-31.01325,TAMWORTH,1014,151.08175,NORTHERN REGION,,MOONBI,,NEW ENGLAND HIGHWAY,9,LEFT
A2,,38.98km from Peak Hill,-33.06089,PARKES,2710,148.18174,WESTERN REGION,,PARKES,,NEWELL HIGHWAY,17,LEFT
A1,,75km West of Wilcannia,-31.72576,UNINCORPORATED NSW,330,142.66598,WESTERN REGION,,LITTLE TOPAR,,BARRIER HIGHWAY,8,RIGHT
A2,,21.6km South of Broken Hill,-32.12346,UNINCORPORATED NSW,190,141.40518,WESTERN REGION,,BROKEN HILL,,SILVER CITY HIGHWAY,22,RIGHT
A2,,39.3km North of Tamworth,-30.87966,TAMWORTH,1045,151.1575,NORTHERN REGION,,BENDEMEER,,NEW ENGLAND HIGHWAY,9,LEFT
A2,,161.8km West of Wilcannia,-31.88047,UNINCORPORATED NSW,385,141.7892,WESTERN REGION,,BROKEN HILL,,BARRIER HIGHWAY,8,RIGHT
A2,,15km West of Jindabyne,-36.35067,SNOWY MONARO REGIONAL,150,148.56359,SOUTHERN REGION,,KOSCIUSZKO NATIONAL PARK,,KOSCIUSZKO ROAD,286,LEFT
A1,MAIN CARRIAGEWAY,89km from Narrandera and  84km to Hay,-34.52367,MURRUMBIDGEE,310,145.70091,SOUTH WEST REGION,,DARLINGTON POINT,,STURT HIGHWAY,14,RIGHT
C1,,22km South of Campbelltown,-34.20507,WOLLONDILLY,781,150.69762,SOUTHERN REGION,,DOUGLAS PARK,,HUME HIGHWAY,2,RIGHT
A2,,20km North of Cooma,-36.07727,SNOWY MONARO REGIONAL,1280,149.15957,SOUTHERN REGION,,CHAKOLA,,MONARO HIGHWAY,19,LEFT
A1,,17km South of Thredbo,-36.52602,SNOWY VALLEYS,50,148.19338,SOUTHERN REGION,,KOSCIUSZKO,,ALPINE WAY,677,RIGHT
A1,,40.5km North of Moree,-29.16386,MOREE PLAINS,3350,150.01324,WESTERN REGION,,MOREE,,NEWELL HIGHWAY,17,LEFT
A1,,0.07km from Ritchmond,-33.60518,HAWKESBURY,370,150.77554,SYDNEY WEST ZONE,,RICHMOND,,WINDSOR ST,184,LEFT
A1,,22km from Echuca (VIC) and  55km to Deniliquin,-35.97319,MURRAY RIVER,40,144.85648,SOUTH WEST REGION,,MOAMA,,COBB HIGHWAY,21,LEFT
A1,,92.8km North of Grafton,-29.07149,RICHMOND VALLEY,3020,153.34308,NORTHERN REGION,,WOODBURN,,RIVER STREET,10,LEFT
A1,,2.1km South of Bourke,-30.11969,BOURKE,130,145.93304,WESTERN REGION,,BOURKE,,WILCANNIA-BOURKE RD,421,LEFT
B2,,12km from Gundagai and 168km to Albury,-35.13529,COOTAMUNDRA-GUNDAGAI REGIONAL,1945,148.01053,SOUTH WEST REGION,,TUMBLONG,,HUME HIGHWAY,2,LEFT
C1,PHYSICAL SEPARATION,51km from Coffs Harbour,-29.93466,CLARENCE VALLEY,2649,153.09455,NORTHERN REGION,,HALFWAY CREEK,,Pacific Highway,10,RIGHT
A1,,26.1km NW of HW11 Nevertire,-31.71609,WARREN,950,147.48728,WESTERN REGION,,MULLENGUDGERY,,MITCHELL HIGHWAY,7,RIGHT
A2,,37km from Gundagai and  44km to Wagga Wagga,-35.21796,WAGGA WAGGA,25,147.78943,SOUTH WEST REGION,,TARCUTTA,,STURT HIGHWAY,14,LEFT
C1,,21km North of Mittagong,-34.31238,WOLLONDILLY,846,150.59204,SOUTHERN REGION,,BARGO,,HUME HIGHWAY,2,RIGHT
A2,,102km from Narrandera and 34km to West Wyalong,-34.19963,COOLAMON,2380,147.11033,SOUTH WEST REGION,,ARIAH PARK,,NEWELL HIGHWAY,17,LEFT
B2,PHYSICAL SEPARATION,66.5km North of Taree,-31.53284,HASTINGS,2180,152.7885,NORTHERN REGION,,LAKE INNES,,PACIFIC HIGHWAY,10,LEFT
B1,MAIN CARRIAGEWAY,19km South of Goulburn,-34.80753,GOULBURN MULWAREE,1305,149.53622,SOUTHERN REGION,,PARKESBOURNE,,HUME HWY S/BOUND,2,LEFT
A3,,58km West of Cobar,-31.55197,COBAR,120,145.20936,WESTERN REGION,,CUBBA,,BARRIER HIGHWAY,8,LEFT
A1,MAIN CARRIAGEWAY,46.49km West of Glenn Innes,-29.78941,INVERELL,350,151.30834,NORTHERN REGION,,ELSMORE,,GWYDIR HIGHWAY,12,RIGHT
B1,,18km South of Marulan,-34.73655,GOULBURN MULWAREE,1160,149.83012,SOUTHERN REGION,,BOXERS CREEK,,HUME HIGHWAY,2,LEFT
B1,,10.1km from Port Macquarie,-31.46326,PORT MACQUARIE - HASTINGS,175,152.82224,NORTHERN REGION,,THRUMSTER,,Oxley Highway,11,LEFT
A1,,6.4km North of Bourke,-30.0546,BOURKE,1230,145.94934,WESTERN REGION,,NORTH BOURKE,,MITCHELL HIGHWAY,7,LEFT
A1,,44.1km North of Tamworth,-30.3887,TAMWORTH,185,150.61,NORTHERN REGION,,BARRABA,,TAMWORTH-YETMAN RD,63,RIGHT
A3,,1.6km West of Nyngan,-31.55497,BOGAN,10,147.17878,WESTERN REGION,,NYNGAN,,BARRIER HIGHWAY,8,LEFT
A1,PHYSICAL SEPARATION,14.9km West of Glen Innes,-29.72654,SEVERN,330,151.59919,NORTHERN REGION,,MATHESON,,GWYDIR HIGHWAY,12,LEFT
A1,,0.3km SouthEast of Nyngan,-31.57372,BOGAN,970,147.21842,WESTERN REGION,,NYNGAN,,MITCHELL HIGHWAY,7,LEFT
A2,,160.9km South of Cobar,-32.83996,COBAR,35,145.87987,WESTERN REGION,,MOUNT HOPE,,KIDMAN WAY,410,RIGHT
A2,,21.5km North of Tamworth,-30.92921,TAMWORTH,60,150.84675,NORTHERN REGION,,ATTUNGA,,TAMWORTH-YETMAN RD,63,RIGHT
A1,,4km North of Stanwell Park,-34.21162,WOLLONGONG,10,151.01025,SOUTHERN REGION,,OTFORD,,LADY WAKEHURST DR,393,RIGHT
B1,PHYSICAL SEPARATION,,-30.27398,COFFS HARBOUR,2565,153.13301,NORTHERN REGION,,COFFS HARBOUR,,PACIFIC HIGHWAY,10,LEFT
A2,PHYSICAL SEPARATION,67km from Balranald and 12km to Euston,-34.51414,BALRANALD,530,142.8482,SOUTH WEST REGION,,EUSTON,,STURT HIGHWAY,14,RIGHT
A1,,3.2km South of Boagabru,-30.7406,GUNNEDAH,207,150.07102,WESTERN REGION,,BOGGABRI,,KAMILAROI HIGHWAY,29,RIGHT
A2,,12km West of Bulli,-34.25499,WOLLONGONG,45,150.86906,SOUTHERN REGION,,CATARACT,,APPIN RD,177,LEFT
A1,PHYSICAL SEPARATION,42.3km West of Grafton,-29.57741,CLARENCE VALLEY,170,152.5574,NORTHERN REGION,,JACKADGERY,,GWYDIR HIGHWAY,12,LEFT
B2,,40km South of Goulburn,-34.81335,UPPER LACHLAN,1325,149.32293,SOUTHERN REGION,,CULLERIN,,HUME HIGHWAY,2,LEFT
A1,,127km from Hay  and  81km to Ivanhoe,-33.50036,HAY,313,144.72297,SOUTH WEST REGION,,BOOLIGAL,,COBB HIGHWAY,21,RIGHT
A2,PHYSICAL SEPARATION,56.3km North of Glen Innes,-29.32564,TENTERFIELD,1450,151.91481,NORTHERN REGION,,BOLIVIA,,4 Mile creek,9,RIGHT
C2,,22km South of Mittagong,-34.53498,WINGECARRIBEE,1045,150.28167,SOUTHERN REGION,,SUTTON FOREST,,HUME HIGHWAY,2,RIGHT
A2,,252.0km West of Cobar,-31.62272,CENTRAL DARLING,235,143.41225,WESTERN REGION,,WILCANNIA,,BARRIER HIGHWAY,8,RIGHT
B1,,62km South of Goulburn,-34.8159,UPPER LACHLAN,1340,149.10955,SOUTHERN REGION,,LADE VALE,,HUME HIGHWAY,2,LEFT
A1,,63.5km West of Glen Innes,-29.7809,INVERELL,380,151.146,NORTHERN REGION,,INVERELL,,GWYDIR HIGHWAY,12,RIGHT
A1,PHYSICAL SEPARATION,33.7km West of Glen Innes,-29.77168,INVERELL,350,151.4358,NORTHERN REGION,,SWAN VALE,,GWYDIR HIGHWAY,12,LEFT
A1,,3.15km South East of Narromine (Dandaloo St),-32.24402,NARROMINE,770,148.27047,WESTERN REGION,,NARROMINE,,MITCHELL HIGHWAY,7,LEFT
A2,,41.6km from Wellington,-32.26585,DUBBO REGIONAL,640,148.665,WESTERN REGION,,DUBBO,,MITCHELL HIGHWAY,7,RIGHT
A1,,40.3km South of Bourke,-30.45754,BOURKE,110,145.93507,WESTERN REGION,,BOURKE,,COBAR-NR BOURKE RD,421,RIGHT
A3,,52.3km from Dubbo (SH7),-32.57084,PARKES,2760,148.22225,WESTERN REGION,,TOMINGLEY,,CASWELL ST,17,RIGHT
A1,,31km from Tumbarumba and  38km to Tumut,-35.53283,SNOWY VALLEYS,100,148.09968,SOUTH WEST REGION,,BATLOW,,BATLOW RD,85,LEFT
A1,,9.4km South of Brewarrina,-30.04217,BREWARRINA,130,146.86764,WESTERN REGION,,BREWARRINA,,COOLABAH-BREWARRINA RD,70,LEFT
B3,,44km North of Canberra,-35.00028,QUEANBEYAN-PALERANG,1052,149.38351,SOUTHERN REGION,,LAKE GEORGE,,FEDERAL HIGHWAY,3,LEFT
A1,,29.5km East of Grenfell,-33.90189,WEDDIN,390,148.46662,WESTERN REGION,,BUMBALDRY,,MID WESTERN HIGHWAY,6,LEFT
A1,,3km North of Cooma,-36.21823,SNOWY MONARO REGIONAL,1260,149.13701,SOUTHERN REGION,,COOMA,,MONARO HIGHWAY,19,RIGHT
B1,,26.7km North of Tamworth,-30.97296,TAMWORTH,1031,151.10394,NORTHERN REGION,,MOONBI,,NEW ENGLAND HIGHWAY,9,LEFT
A1,,17km from Culcairn and  61km to Wagga Wagga,-35.51924,GREATER HUME,110,147.03613,SOUTH WEST REGION,,HENTY,,RAILWAY PDE,78,LEFT
A2,,17km West of Bemboka,-36.60857,BEGA VALLEY,170,149.43212,SOUTHERN REGION,,BEMBOKA,,SNOWY MOUNTAINS HIGHWAY,4,LEFT
A1,MAIN CARRIAGEWAY,15.9km West of Inverell,-29.73597,INVERELL,450,150.9622,NORTHERN REGION,,LITTLE PLAIN,,GWYDIR HIGHWAY,12,LEFT
A1,,62.5km from Harden and 19.6km to Temora,-34.46804,TEMORA,190,147.72626,SOUTH WEST REGION,,SPRINGDALE,,BURLEY GRIFFIN WAY,84,RIGHT
A1,,0.7km NorthWest of Nyngan,-31.5482,BOGAN,1040,147.16889,WESTERN REGION,,NYNGAN,,MITCHELL HIGHWAY,7,RIGHT
A1,,19.43km North of Mudgee,-32.44049,MID WESTERN REGIONAL,1190,149.51844,WESTERN REGION,,GALAMBINE,,CASTLEREAGH HIGHWAY,18,RIGHT
A3,,51.3km West of Cobar,-31.54333,COBAR,120,145.28043,WESTERN REGION,,CUBBA,,BARRIER HIGHWAY,8,RIGHT
A1,,3.6km West of Wollongong,-34.4016,WOLLONGONG,15,150.88061,SOUTHERN REGION,,KEIRAVILLE,,MT OUSLEY RD,95,RIGHT
A1,,0.2km North of Kyogle,-28.6166,KYOGLE,399,153.002,NORTHERN REGION,,NEW PARK,,SUMMERLAND WAY,83,LEFT
A1,,22km from Tumbarumba and 47Kkm to Tumut,-35.60995,SNOWY VALLEYS,90,148.09305,SOUTH WEST REGION,,LAUREL HILL,,BATLOW RD,85,LEFT
A1,,Goolagong-47.3km East of Forbes,-33.61362,COWRA,180,148.43458,WESTERN REGION,,GOOLOOGONG,,COWRA-FORBES RD,56,RIGHT
A2,,9.4km South of Oberon turn off,-33.74941,LITHGOW,60,150.04154,WESTERN REGION,,HAMPTON,,HARTLEY-JENOLAN CAVES-BATHURST,253,RIGHT
A1,,7.12km West of Dubbo (SH17),-32.20363,DUBBO REGIONAL,730,148.53909,WESTERN REGION,,DUBBO,,MITCHELL HIGHWAY,7,RIGHT
C1,,15km North of Mittagong,-34.35425,WINGECARRIBEE,897,150.54268,SOUTHERN REGION,,YERRINBOOL,,HUME HIGHWAY,2,RIGHT
A2,,46.4km South of Ivanhoe,-33.2515,CENTRAL DARLING,332,144.5666,WESTERN REGION,,MOSSGIEL,,COBB HIGHWAY,21,LEFT
C1,,28km from Albury and 146km to Gundagai,-35.91557,GREATER HUME,2195,147.10223,SOUTH WEST REGION,,MULLENGANDRA,,HUME HIGHWAY,2,RIGHT
A1,,9.7km North of Moree,-29.41182,MOREE PLAINS,3325,149.91956,WESTERN REGION,,MOREE,,NEWELL HIGHWAY,17,LEFT
A1,,7.6km West of Jindabyne,-36.37855,SNOWY MONARO REGIONAL,140,148.59469,SOUTHERN REGION,,JINDABYNE,,KOSCIUSZKO ROAD,286,LEFT
A2,,8.0km East of Brewarrina Bridge,-29.91582,BREWARRINA,695,146.91329,WESTERN REGION,,BREWARRINA,,KAMILAROI HIGHWAY,29,LEFT
A1,,8.4km West of Collarenebri,-29.59013,WALGETT,840,148.49289,WESTERN REGION,,COLLARENEBRI,,WALGETT-COLLARENEBRI RD,12,RIGHT
A1,PHYSICAL SEPARATION,53km from Balranald and  26km to Euston,-34.54093,BALRANALD,520,142.99662,SOUTH WEST REGION,,BALRANALD,,STURT HIGHWAY,14,RIGHT
A1,,12.3km North of Gilgrandra,-31.63243,GILGANDRA,2985,148.73436,WESTERN REGION,,BIDDON,,NEWELL HIGHWAY,17,RIGHT
A1,,Nyngan,-31.55676,BOGAN,1030,147.18321,WESTERN REGION,,NYNGAN,,MITCHELL HIGHWAY,7,LEFT
A1,,Caragabel,-33.84378,WEDDIN,580,147.73991,WESTERN REGION,,CARAGABAL,,MID WESTERN HIGHWAY,6,RIGHT
A1,,19.5km South of Eden,-37.20277,BEGA VALLEY,2570,149.84526,SOUTHERN REGION,,NARRABARBA,,PRINCES HIGHWAY,1,RIGHT
A1,PHYSICAL SEPARATION,2km from Hay and 129km to Balranald,-34.52033,HAY,380,144.82914,SOUTH WEST REGION,,HAY SOUTH,,STURT HIGHWAY,14,RIGHT
A1,,,-34.43873,HILLTOPS,60,148.71591,SOUTH WEST REGION,,BOOROWA,,MARSDEN ST,56,LEFT
A2,,42km from Molong,-32.68255,DUBBO REGIONAL,460,148.94741,WESTERN REGION,,NEUREA,,MITCHELL HIGHWAY,7,LEFT
A2,,Brewarrina-East,-29.94817,BREWARRINA,695,146.86335,WESTERN REGION,,BREWARRINA,,KAMILAROI HIGHWAY,29,LEFT
A1,,4km from Echuca (VIC) and  72km to Deniliquin,-36.09131,MURRAY RIVER,30,144.75122,SOUTH WEST REGION,,MOAMA,,COBB HIGHWAY,21,LEFT
A2,,Parkes East,-33.14259,PARKES,140,148.19161,WESTERN REGION,,PARKES,,ORANGE-PARKES RD,61,RIGHT
A1,,20km South of Jindabyne,-36.44947,SNOWY MONARO REGIONAL,10,148.44413,SOUTHERN REGION,,KOSCIUSZKO NATIONAL PARK,,ALPINE WAY,677,LEFT
A1,,21.9km North of Gilgrandra,-31.5637,GILGANDRA,2990,148.79487,WESTERN REGION,,BIDDON,,NEWELL HIGHWAY,17,LEFT
B2,,9km South of Goulburn,-34.78779,GOULBURN MULWAREE,1245,149.63955,SOUTHERN REGION,,YARRA,,HUME HIGHWAY,2,LEFT
C1,,20km South of Goulburn,-34.80703,GREATER ARGYLE,1305,149.53853,SOUTHERN REGION,,PARKESBOURNE,,HUME HWY N/BOUND,2,RIGHT
C1,,41km South of Goulburn,-34.9675,QUEANBEYAN-PALERANG,1062,149.4018,SOUTHERN REGION,,COLLECTOR,,FEDERAL HIGHWAY,3,RIGHT
A3,,68.9km West of Cobar,-31.57919,COBAR,120,145.12859,WESTERN REGION,,CUBBA,,BARRIER HIGHWAY,8,LEFT
A1,,2.0km North of Tamworth,-31.10842,TAMWORTH,980,150.95408,NORTHERN REGION,,EAST TAMWORTH,,ARMIDALE ROAD,9,RIGHT
A1,,37km from Hillston and  218km to Cobar,-33.34138,CARRATHOOL,15,145.8359,SOUTH WEST REGION,,WALLANTHERY,,KIDMAN WAY,410,RIGHT
A1,,32.8km East of Grenfell,-33.8867,WEDDIN,390,148.49738,WESTERN REGION,,BUMBALDRY,,MID WESTERN HIGHWAY,6,LEFT
A2,,8km South of Forbes,-33.44112,FORBES,2540,147.90941,WESTERN REGION,,FORBES,,NEWELL HIGHWAY,17,LEFT
A1,,15km from Hay and 193km to Ivanhoe,-34.37169,HAY,260,144.81354,SOUTH WEST REGION,,HAY,,COBB HIGHWAY,21,LEFT
A1,,26km from Young and  45km to Cowra,-34.16737,HILLTOPS,610,148.45963,SOUTH WEST REGION,,BENDICK MURRELL,,OLYMPIC HIGHWAY,78,RIGHT
C3,,80km north of Ballina,-28.24378,TWEED,3381,153.55759,NORTHERN REGION,,CHINDERAH,,PACIFIC HIGHWAY,10,RIGHT
C1,,69.1km from Lithgow,-33.69732,BLUE MOUNTAINS,1281,150.55195,SYDNEY WEST ZONE,,SPRINGWOOD,,GREAT WESTERN HWY,5,RIGHT
B3,,7.00km from Lithgow,-33.42874,LITHGOW,1626,150.10542,WESTERN REGION,,MARRANGAROO,,GREAT WESTERN HIGHWAY,5,LEFT
A1,,26.41km NorthWest of Coolabah,-30.83089,BOGAN,1081,146.54633,WESTERN REGION,,BYROCK,,MITCHELL HIGHWAY,7,LEFT
A1,,22km South of Eden,-37.22243,BEGA VALLEY,2570,149.83029,SOUTHERN REGION,,NARRABARBA,,PRINCES HIGHWAY,1,RIGHT
A1,,12km from Deniliquin and 110km to Hay,-35.44287,EDWARD RIVER,130,144.91747,SOUTH WEST REGION,,DENILIQUIN,,COBB HIGHWAY,21,LEFT
A1,,3.5km NorthWest of Girelambone,-31.22016,BOGAN,1065,146.87913,WESTERN REGION,,GIRILAMBONE,,MITCHELL HIGHWAY,7,RIGHT
A3,,109.3km East of Cobar,-31.57059,BOGAN,10,146.99475,WESTERN REGION,,MIANDETTA,,BARRIER HIGHWAY,8,LEFT
A1,MAIN CARRIAGEWAY,20.5km West of Bellingen,-30.3945,BELLINGEN,60,152.74601,NORTHERN REGION,,DORRIGO MOUNTAIN,,WATERFALL WAY,76,RIGHT
A1,PHYSICAL SEPARATION,4.2km North of Lismore,-28.78882,LISMORE,45,153.30598,NORTHERN REGION,,HOWARDS GRASS,,Lismore-Bangalow Road,65,LEFT
A1,PHYSICAL SEPARATION,26.0km West of Somerton,-30.99425,GUNNEDAH,675,150.37793,NORTHERN REGION,,CARROLL,,OXLEY HIGHWAY,11,RIGHT
A1,,34.22km from Mendooran,-31.81121,GILGANDRA,2110,148.79534,WESTERN REGION,,BREELONG,,CASTLEREAGH HIGHWAY,18,RIGHT
A1,,Apex Park at Lake Forbes,-33.38894,FORBES,2555,148.00821,WESTERN REGION,,FORBES,,WEST WYALONG RD,17,RIGHT
B1,,79km from Gundagai and 101km to Albury,-35.50558,GREATER HUME,2075,147.56447,SOUTH WEST REGION,,KYEAMBA,,HUME HIGHWAY,2,LEFT
A1,,30km from Albury and  19km to Culcairn,-35.83592,GREATER HUME,30,146.99472,SOUTH WEST REGION,,GEROGERY,,OLYMPIC HIGHWAY,78,LEFT
A1,,25km from Darlington Point and 9km to Griffith,-34.36947,GRIFFITH,150,146.03518,SOUTH WEST REGION,,HANWOOD,,KIDMAN WAY,321,LEFT
A2,,15.3km South of Peak Hill,-32.86251,PARKES,2730,148.23138,WESTERN REGION,,ALECTOWN,,NEWELL HIGHWAY,17,RIGHT
A1,,190.1km West of Wilcannia,-31.9388,BROKEN HILL,390,141.51675,WESTERN REGION,,BROKEN HILL,,BARRIER HIGHWAY,8,RIGHT
A1,,99km from  Jerilderie and  34km to Griffith,-34.5744,MURRUMBIDGEE,110,145.9958,SOUTH WEST REGION,,DARLINGTON POINT,,KIDMAN WAY,321,RIGHT
A1,,0.045km South of Mitchell Hwy junction,-33.37535,ORANGE,10,149.1888,WESTERN REGION,,SHADFORTH,,WHILEYS JUNCTION-SHADFORTH RD,559,LEFT
A2,,13km North of Jindabyne,-36.34213,SNOWY MONARO REGIONAL,150,148.58031,SOUTHERN REGION,,KOSCIUSZKO NATIONAL PARK,,KOSCIUSZKO ROAD,286,LEFT
B1,,33km North of Canberra,-35.10092,QUEANBEYAN-PALERANG,1042,149.37427,SOUTHERN REGION,,LAKE GEORGE,,FEDERAL HIGHWAY,3,LEFT
C1,,109km from Gundagai and  71km to Albury,-35.6818,GREATER HUME,2095,147.36277,SOUTH WEST REGION,,HOLBROOK,,HUME HIGHWAY,2,RIGHT
A2,,53.9km from Molong,-32.6266,DUBBO REGIONAL,470,148.94865,WESTERN REGION,,APSLEY,,MITCHELL HIGHWAY,7,RIGHT
A1,,82km North of Grafton,-29.15377,RICHMOND VALLEY,2950,153.2987,NORTHERN REGION,,NEW ITALY,,PACIFIC HIGHWAY,10,LEFT
A1,,63.9km North of Gilgandra (SH17),-31.2267,COONAMBLE,3090,148.45685,WESTERN REGION,,GULARGAMBONE,,CASTLEREAGH HIGHWAY,18,RIGHT
A1,,117km from Mudgee turnoff,-32.60326,MID WESTERN REGIONAL,1140,149.59799,WESTERN REGION,,MUDGEE,,CASTLEREAGH HIGHWAY,18,LEFT
A3,,35.9km West of Broken Hill,-32.04024,UNINCORPORATED NSW,510,141.13525,WESTERN REGION,,BROKEN HILL,,BARRIER HIGHWAY,8,LEFT
A1,,12.69km from Dubbo (SH7),-32.32997,DUBBO REGIONAL,2800,148.50863,WESTERN REGION,,DUBBO,,NEWELL HIGHWAY,17,RIGHT
A1,,11.22km East of Dubbo (Bourke St),-32.20313,DUBBO REGIONAL,450,148.71617,WESTERN REGION,,DUBBO,,DUNEDOO-DUBBO RD,27,RIGHT
A1,,0.2km West of Dorrigo,-30.3398,BELLINGEN,100,152.709,NORTHERN REGION,,DORRIGO,,CUDGERY STREET,76,LEFT
B1,,38km South of Campbelltown,-34.32823,WINGECARRIBEE,897,150.56747,SOUTHERN REGION,,YERRINBOOL,,HUME HIGHWAY,2,LEFT
A2,,13.1km West of Cobar,-31.51355,COBAR,100,145.68762,WESTERN REGION,,COBAR,,BARRIER HIGHWAY,8,RIGHT
A1,,15km South of Bourke,-30.23406,BOURKE,120,145.93364,WESTERN REGION,,BOURKE,,COBAR-NR BOURKE RD,421,RIGHT
A2,,17km West of Bemboka,-36.6091,BEGA VALLEY,170,149.43192,SOUTHERN REGION,,BEMBOKA,,SNOWY MOUNTAINS HIGHWAY,4,RIGHT
A1,,1km SouthEast of Byrock,-30.67274,BOGAN,1081,146.41008,WESTERN REGION,,BYROCK,,MITCHELL HIGHWAY,7,LEFT
A2,,15.75km west of Brewarrina,-29.94317,BREWARRINA,730,146.7039,WESTERN REGION,,BREWARRINA,,KAMILAROI HIGHWAY,29,RIGHT
A3,,41km South of Bombala,-37.22444,SNOWY MONARO REGIONAL,1010,149.28693,SOUTHERN REGION,,ROCKTON,,MONARO HIGHWAY,19,RIGHT
A3,,35.9km West of Broken Hill,-32.04103,UNINCORPORATED NSW,510,141.13474,WESTERN REGION,,BROKEN HILL,,BARRIER HIGHWAY,8,RIGHT
A2,,74.9km W of Gunnedah (31.4km to SH17),-31.13223,WARRUMBUNGLE,800,149.5439,WESTERN REGION,,ROCKY GLEN,,OXLEY HIGHWAY,11,RIGHT
A1,,37.6km South of Coonabarabran,-31.42722,COONABARABRAN,3032,149.07905,WESTERN REGION,,GOWANG,,NEWELL HIGHWAY,17,RIGHT
A1,PHYSICAL SEPARATION,56km from Hay and  76km to Balranald,-34.63206,HAY,400,144.2941,SOUTH WEST REGION,,MAUDE,,STURT HIGHWAY,14,LEFT
A1,,33.9km East of Carragable,-33.84957,WEDDIN,520,148.09072,WESTERN REGION,,GRENFELL,,MID WESTERN HIGHWAY,6,RIGHT
A1,,1km NorthWest of Coolabah,-31.01534,BOGAN,1075,146.70313,WESTERN REGION,,COOLABAH,,MITCHELL HIGHWAY,7,LEFT
A2,,16.7km East of Blayney,-33.48248,BATHURST REGIONAL,40,149.41647,WESTERN REGION,,BATHAMPTON,,MID WESTERN HIGHWAY,6,LEFT
A1,,38km West of Jindabyne,-36.42913,SNOWY MONARO REGIONAL,170,148.36006,SOUTHERN REGION,,KOSCIUSZKO NATIONAL PARK,,KOSCIUSZKO ROAD,286,RIGHT
A1,,2.4km East of Mandurama,-33.64004,BLAYNEY,171,149.10151,WESTERN REGION,,CARCOAR,,MID WESTERN HIGHWAY,6,LEFT
A1,,20.2km East of Carragable,-33.81494,WEDDIN,540,147.95374,WESTERN REGION,,PINEY RANGE,,MID WESTERN HIGHWAY,6,RIGHT
A2,,7km from West Wyalong and  97km to Forbes,-33.91541,BLAND,2480,147.2777,SOUTH WEST REGION,,WYALONG,,NEWELL HIGHWAY,17,LEFT
A1,,At Nimmitabel,-36.51493,SNOWY MONARO REGIONAL,1170,149.28253,SOUTHERN REGION,,NIMMITABEL,,BOMBALA ST,19,RIGHT
A1,,Dunedoo,-32.01604,COONABARABRAN,330,149.39618,WESTERN REGION,,DUNEDOO,,NR CRABOON-GILGANDRA RD,27,RIGHT
A3,PHYSICAL SEPARATION,69.6km North of Coffs Harbour,-29.78408,CLARENCE VALLEY,2670,153.00837,NORTHERN REGION,,GLENUGIE,,PACIFIC HIGHWAY,10,LEFT
A1,,59.3km West of Inverell,-29.5498,GWYDIR,510,150.591,NORTHERN REGION,,WARIALDA,,GWYDIR HIGHWAY,12,LEFT
A2,,34.1km West of Cobar,-31.53038,COBAR,100,145.46399,WESTERN REGION,,CUBBA,,BARRIER HIGHWAY,8,LEFT
A2,,60.34km West of Wilcannia,-31.6733,CENTRAL DARLING,320,142.81276,WESTERN REGION,,LITTLE TOPAR,,BARRIER HIGHWAY,8,RIGHT
A1,,42.5km South of Forbes,-33.60618,WEDDIN,2510,147.61392,WESTERN REGION,,WIRRINYA,,NEWELL HIGHWAY,17,RIGHT
A1,MAIN CARRIAGEWAY,10km from Euston and  69km to Mildura (VIC),-34.53934,BALRANALD,570,142.65282,SOUTH WEST REGION,,EUSTON,,STURT HIGHWAY,14,LEFT
A1,,26km from Lithgow,-33.62012,BLUE MOUNTAINS,1505,150.27511,SYDNEY WEST ZONE,,BLACKHEATH,,GREAT WESTERN HWY,5,LEFT
A1,MAIN CARRIAGEWAY,3km from Hay and 129km to Balranald,-34.51986,HAY,380,144.82052,SOUTH WEST REGION,,HAY SOUTH,,STURT HIGHWAY,14,LEFT
A1,,2km north of Canowindra Town Centre,-33.56017,CABONNE,106,148.66763,WESTERN REGION,,CANOWINDRA,,RODD ST,310,LEFT
A6,,13.2km North of Kyogle,-28.5132,KYOGLE,410,152.96201,NORTHERN REGION,,WIANGAREE,,SUMMERLAND WAY,83,RIGHT
A1,,Bathurst - W of Stewart St.,-33.4161,BATHURST REGIONAL,20,149.55862,WESTERN REGION,,WEST BATHURST,,VITTORIA ST,7,RIGHT
A2,,20.6km from Orange,-33.1208,CABONNE,280,148.95564,WESTERN REGION,,MOLONG,,MOLONG RD,7,RIGHT
A1,,14.7km North of Byrock,-30.54362,BOURKE,1105,146.30485,WESTERN REGION,,BYROCK,,MITCHELL HIGHWAY,7,LEFT
A1,,9km North of Glen Innes,-29.66293,SEVERN,1400,151.77645,NORTHERN REGION,,YARROWFORD,,NEW ENGLAND HIGHWAY,9,LEFT
A2,,37km South of Nowra,-35.12298,SHOALHAVEN,1670,150.47767,SOUTHERN REGION,,TULLARWALLA,,PRINCES HIGHWAY,1,LEFT
A2,,118km from Cooma and  63km to Tumut,-35.65232,SNOWY VALLEYS,450,148.46303,SOUTH WEST REGION,,YARRANGOBILLY,,SNOWY MOUNTAINS HIGHWAY,4,RIGHT
A2,,127.5km West of Wauchope,-31.18811,WALCHA,400,151.83081,NORTHERN REGION,,WALCHA,,OXLEY HIGHWAY,11,LEFT
C1,,57km from Lithgow,-33.41714,BATHURST REGIONAL,1765,149.59396,WESTERN REGION,,KELSO,,GREAT WESTERN HIGHWAY,5,RIGHT
A3,,8.0km South of Broken Hill,-32.00707,UNINCORPORATED NSW,200,141.43734,WESTERN REGION,,BROKEN HILL,,SILVER CITY HIGHWAY,22,RIGHT
A1,,48.2km South of Moree,-29.87416,NARRABRI,3251,149.78867,WESTERN REGION,,BELLATA,,NEWELL HIGHWAY,17,RIGHT
A1,PHYSICAL SEPARATION,24.7km west of Bellingen,-30.37462,BELLINGEN,60,152.72531,NORTHERN REGION,,DORRIGO MOUNTAIN,,WATERFALL WAY,76,RIGHT
A1,MAIN CARRIAGEWAY,46.9km West of Glenn Innes,-29.7918,INVERELL,350,151.30492,NORTHERN REGION,,ELSMORE,,GWYDIR HIGHWAY,12,LEFT
A1,,41km from Echuca (VIC) and  35km to Deniliquin,-35.81192,MURRAY RIVER,50,144.90219,SOUTH WEST REGION,,MATHOURA,,MOAMA ST,21,LEFT
A2,,12km West of Bulli,-34.25601,WOLLONGONG,45,150.87058,SOUTHERN REGION,,CATARACT,,APPIN RD,177,RIGHT
A1,,0.4km West of Cowra,-33.83589,COWRA,370,148.65037,WESTERN REGION,,COWRA,,GRENFELL RD,6,LEFT
A1,,41.72Km North of Armidale,-30.21905,ARMIDALE REGIONAL,1280,151.67266,NORTHERN REGION,,GUYRA,,MALPAS STREET,9,LEFT
A1,,36km from West Wyalong and 220km to Hay,-33.84466,BLAND,675,146.82883,SOUTH WEST REGION,,NORTH YALGOGRIN,,MID WESTERN HIGHWAY,6,LEFT
A1,,40km from Deniliquin and  82km to Hay,-35.21877,EDWARD RIVER,150,144.81657,SOUTH WEST REGION,,WANGANELLA,,COBB HIGHWAY,21,RIGHT
A1,,37.3km South of Coonabarabran,-31.42619,COONABARABRAN,3032,149.08137,WESTERN REGION,,GOWANG,,NEWELL HIGHWAY,17,LEFT
A1,PHYSICAL SEPARATION,30km from Hay and 102km to Balranald,-34.60352,HAY,390,144.5669,SOUTH WEST REGION,,HAY SOUTH,,STURT HIGHWAY,14,LEFT
A1,,148km from West Wyalong and 107km to Hay,-33.98981,CARRATHOOL,780,145.69494,SOUTH WEST REGION,,GOOLGOWI,,MID WESTERN HIGHWAY,6,RIGHT
A1,,96km from Deniliquin and  27km to Hay,-34.74151,HAY,180,144.7918,SOUTH WEST REGION,,BOOROORBAN,,COBB HIGHWAY,21,LEFT
A2,,144.7km West of Wauchope,-31.053,WALCHA,420,151.75938,NORTHERN REGION,,WALCHA,,OXLEY HIGHWAY,11,RIGHT
A1,,13.2km from Mudgee turnoff,-33.34063,LITHGOW,1030,150.03628,WESTERN REGION,,PORTLAND,,CASTLEREAGH HIGHWAY,18,RIGHT
A1,,12km South of Cobargo,-36.46832,BEGA VALLEY,2265,149.86632,SOUTHERN REGION,,QUAAMA,,PRINCES HIGHWAY,1,LEFT
A1,,3.1km North of Gulargambone,-31.30541,COONAMBLE,3080,148.46939,WESTERN REGION,,GULARGAMBONE,,CASTLEREAGH HIGHWAY,18,LEFT
A1,,1.05km from Ritchmond,-33.6061,HAWKESBURY,370,150.77981,SYDNEY WEST ZONE,,RICHMOND,,WINDSOR ST,184,LEFT
A2,,Gilgrandra town,-31.71682,GILGANDRA,2950,148.65904,WESTERN REGION,,GILGANDRA,,CASTLEREAGH ST,17,RIGHT
A1,PHYSICAL SEPARATION,38km from Euston and  41km to Mildura (VIC),-34.39056,WENTWORTH,580,142.42704,SOUTH WEST REGION,,MALLEE,,STURT HIGHWAY,14,LEFT
A1,,72km from Echuca(VIC) and 4km to Deniliquin,-35.55035,EDWARD RIVER,77,144.95769,SOUTH WEST REGION,,DENILIQUIN,,OCHTERTYRE ST,21,LEFT
A1,,1.3km North of Bingara,-29.8608,GWYDIR,320,150.57384,NORTHERN REGION,,BINGARA,,TAMWORTH-YETMAN RD,63,LEFT
A1,,122.0km West of Dorrigo,-30.5243,ARMIDALE REGIONAL,290,151.69156,NORTHERN REGION,,ARMIDALE,,WATERFALL WAY,76,LEFT
A1,PHYSICAL SEPARATION,30.6km North of Bingara,-29.61379,GWYDIR,340,150.5437,NORTHERN REGION,,WARIALDA RAIL,,TAMWORTH-YETMAN RD,63,LEFT
A1,,32.8km South of Moree (Heber St),-29.73666,MOREE PLAINS,3260,149.79986,WESTERN REGION,,GURLEY,,NEWELL HIGHWAY,17,RIGHT
A1,,8.3-9.6km East of Grenfell,-33.90856,WEDDIN,420,148.26521,WESTERN REGION,,GRENFELL,,MID WESTERN HIGHWAY,6,RIGHT
A1,,78.4km from Gilgrandra (4.63km N Warren),-31.6645,WARREN,1100,147.86018,WESTERN REGION,,TENANDRA,,OXLEY HIGHWAY,11,RIGHT
A1,PHYSICAL SEPARATION,16km from Narrandera and 158km to Hay,-34.708,NARRANDERA,241,146.41595,SOUTH WEST REGION,,EUROLEY,,STURT HIGHWAY,14,RIGHT
C1,,57km South of Goulburn,-35.10099,QUEANBEYAN-PALERANG,1042,149.3746,SOUTHERN REGION,,LAKE GEORGE,,FEDERAL HIGHWAY,3,RIGHT
A1,,6.29km North of Mudgee,-32.54916,MID WESTERN REGIONAL,1180,149.54262,WESTERN REGION,,MENAH,,CASTLEREAGH HIGHWAY,18,LEFT
A2,,65.4km West of Emmdale,-31.70654,CENTRAL DARLING,220,143.61644,WESTERN REGION,,WILCANNIA,,BARRIER HIGHWAY,8,RIGHT
A1,,126.5km West of Casino,-29.0539,TENTERFIELD,460,152.024,NORTHERN REGION,,TENTERFIELD,,CLARENCE STREET,16,LEFT
A1,,4.8km North of Armidale,-30.49351,ARMIDALE REGIONAL,1205,151.65104,NORTHERN REGION,,ARMIDALE,,NEW ENGLAND HIGHWAY,9,LEFT
A1,,North Forbes,-33.36342,FORBES,2610,148.02308,WESTERN REGION,,FORBES,,PARKES RD,17,RIGHT
A2,,41km from Junee and 11km to Cootamundra,-34.7025,COOTAMUNDRA-GUNDAGAI REGIONAL,390,147.94161,SOUTH WEST REGION,,COOTAMUNDRA,,OLYMPIC HIGHWAY,78,RIGHT
A3,,111.3km East of Cobar,-31.57386,BOGAN,10,147.01522,WESTERN REGION,,MIANDETTA,,BARRIER HIGHWAY,8,LEFT
A2,,54.1km from Kurmond Rd turn off,-33.22472,HAWKESBURY,1100,150.66438,SYDNEY WEST ZONE,,COLO HEIGHTS,,THE PUTTY RD,503,LEFT
A2,,Wellington,-32.53953,DUBBO REGIONAL,570,148.94115,WESTERN REGION,,MONTEFIORES,,DUBBO RD,7,LEFT
A2,,31km West of Nowra,-34.68109,SHOALHAVEN,30,150.50711,SOUTHERN REGION,,BARRENGARRY,,BOMADERRY-MOSS VALE RD,261,RIGHT
A3,,66.3km West of Cobar,-31.57937,COBAR,120,145.12849,WESTERN REGION,,CUBBA,,BARRIER HIGHWAY,8,LEFT
C3,,1.2km from Lithgow,-33.49189,LITHGOW,1605,150.13409,WESTERN REGION,,LITTLETON,,GREAT WESTERN HIGHWAY,5,RIGHT
B2,,24km North of Canberra,-35.16032,QUEANBEYAN-PALERANG,1031,149.31846,SOUTHERN REGION,,BYWONG,,FEDERAL HIGHWAY,3,LEFT
A2,,6.7km North of Coonabarabran,-31.23299,COONABARABRAN,3100,149.31806,WESTERN REGION,,COONABARABRAN,,NEWELL HIGHWAY,17,LEFT
A1,,34km from Orange,-33.09907,CABONNE,335,148.87209,WESTERN REGION,,MOLONG,,MOLONG RD,7,RIGHT
A1,,63km West of Topar Roadhouse,-31.90395,BROKEN HILL,390,141.58186,WESTERN REGION,,BROKEN HILL,,BARRIER HIGHWAY,8,RIGHT
A1,,63km from Gundagai and 19km to Wagga Wagga,-35.16011,WAGGA WAGGA,30,147.55423,SOUTH WEST REGION,,ALFREDTOWN,,STURT HIGHWAY,14,LEFT
A1,,63km from Gundagai and 18km to Wagga Wagga,-35.15922,WAGGA WAGGA,30,147.55274,SOUTH WEST REGION,,ALFREDTOWN,,STURT HIGHWAY,14,RIGHT
C1,,62km South of Goulburn,-34.82466,YASS VALLEY,1402,149.07523,SOUTHERN REGION,,JERRAWA,,HUME HIGHWAY,2,RIGHT
A1,,61km from Culcairn and 16km to Wagga Wagga,-35.1932,WAGGA WAGGA,160,147.24572,SOUTH WEST REGION,,URANQUINTY,,MORGAN ST,78,LEFT
A1,,46.2km South of Moree,-29.85596,NARRABRI,3251,149.78863,WESTERN REGION,,BELLATA,,NEWELL HIGHWAY,17,LEFT
C2,,4km North of Goulburn,-34.74208,GREATER ARGYLE,10,149.76692,SOUTHERN REGION,,TOWRANG,,OLD HUME HIGHWAY,676,RIGHT
A1,,1.2km West of Blayney,-33.5476,BLAYNEY,130,149.23648,WESTERN REGION,,BLAYNEY,,COWRA RD,6,RIGHT
C1,,63km South of Goulburn,-35.1434,QUEANBEYAN-PALERANG,1042,149.33436,SOUTHERN REGION,,BYWONG,,FEDERAL HIGHWAY,3,RIGHT
A1,,47.2km West of Dorrigo (1km West of Ebor),-30.4066,ARMIDALE REGIONAL,175,152.34565,NORTHERN REGION,,EBOR,,WATERFALL WAY,76,RIGHT
A2,,Parkes town,-33.1246,PARKES,2690,148.17352,WESTERN REGION,,PARKES,,CURRAJONG ST,17,LEFT
A1,,163.0km West of Wauchope,-30.98558,WALCHA,435,151.59488,NORTHERN REGION,,WALCHA,,OXLEY HIGHWAY,11,LEFT
A2,,24km South of Narrabri,-30.49411,NARRABRI,3130,149.63673,WESTERN REGION,,BOHENA CREEK,,NEWELL HIGHWAY,17,RIGHT
A2,,3.7km South of Narrabri,-30.34907,NARRABRI,3140,149.75842,WESTERN REGION,,NARRABRI,,NEWELL HIGHWAY,17,RIGHT
A2,,At Bombala,-36.90754,SNOWY MONARO REGIONAL,1090,149.23947,SOUTHERN REGION,,BOMBALA,,MAHRATTA ST,19,LEFT
A2,,127km from Narrandera and  9km to West Wyalong,-33.98371,BLAND,2400,147.1576,SOUTH WEST REGION,,WEST WYALONG,,NEWELL HIGHWAY,17,LEFT
A3,,54.99km South of Dubbo (SH7),-32.5941,PARKES,2760,148.21965,WESTERN REGION,,TOMINGLEY,,CASWELL ST,17,RIGHT
A1,,247km from West Wyalong and  8km to Hay,-34.49765,HAY,840,144.91777,SOUTH WEST REGION,,HAY,,MID WESTERN HIGHWAY,6,LEFT
C1,PHYSICAL SEPARATION,17.2km north of Kempsey,-30.90962,KEMPSEY,2310,152.919,NORTHERN REGION,,CLYBUCCA,,Pacific Highway Collombatti,10,RIGHT
A1,,54.1km from Lithgow,-33.51225,HAWKESBURY,461,150.5726,SYDNEY WEST ZONE,,BILPIN,,BELLS LINE OF RD,184,RIGHT
A1,,50km from Griffith and 60km to Hillston,-33.98441,CARRATHOOL,260,145.70999,SOUTH WEST REGION,,GOOLGOWI,,KIDMAN WAY,80,RIGHT
A2,,Gilgrandra town,-31.72048,GILGANDRA,2950,148.65726,WESTERN REGION,,GILGANDRA,,CASTLEREAGH ST,17,RIGHT
A3,,Wilcannia,-31.55664,CENTRAL DARLING,280,143.3756,WESTERN REGION,,WILCANNIA,,MYERS ST,8,LEFT
B2,,6km North of Marulan,-34.684,WINGECARRIBEE,1105,150.0515,SOUTHERN REGION,,MARULAN,,HUME HIGHWAY,2,LEFT
A2,,89.2km West of Emmdale,-31.64773,CENTRAL DARLING,235,143.42546,WESTERN REGION,,WILCANNIA,,BARRIER HIGHWAY,8,RIGHT
A1,,48.8km North of Narrabri,-29.90474,NARRABRI,3251,149.7907,WESTERN REGION,,BELLATA,,NEWELL HIGHWAY,17,LEFT
R1,,0.74km from Mudgee turnoff,-33.42604,LITHGOW,1626,150.10434,WESTERN REGION,,MARRANGAROO,,GREAT WESTERN HIGHWAY,5,LEFT
A1,,13.4km South of Forbes,-33.46948,FORBES,2530,147.88363,WESTERN REGION,,FORBES,,NEWELL HIGHWAY,17,LEFT
A3,,3km from West Wyalong and 101km to Forbes,-33.92431,BLAND,2470,147.2342,SOUTH WEST REGION,,WYALONG,,NEELD ST,17,LEFT
A1,,7.4km North of Moree,-29.42244,MOREE PLAINS,3325,149.89847,WESTERN REGION,,MOREE,,NEWELL HIGHWAY,17,RIGHT
A2,PHYSICAL SEPARATION,31.7km North of Barraba,-30.1108,GWYDIR,250,150.59801,NORTHERN REGION,,DINOGA,,TAMWORTH-YETMAN RD,63,LEFT
A1,PHYSICAL SEPARATION,36.1km West of Inverell,-29.63978,GWYDIR,495,150.79727,NORTHERN REGION,,DELUNGRA,,INVERELL STREET,12,LEFT
A1,,12km from Echuca (VIC) and  65km to Deniliquin,-36.03557,MURRAY RIVER,30,144.77849,SOUTH WEST REGION,,MOAMA,,COBB HIGHWAY,21,RIGHT
A3,,7.2km West of Broken Hill,-31.97207,BROKEN HILL,500,141.41188,WESTERN REGION,,BROKEN HILL,,BARRIER HIGHWAY,8,LEFT
B1,,0.48km West of Lithgow,-33.47684,LITHGOW,1611,150.1321,WESTERN REGION,,BOWENFELS,,GREAT WESTERN HIGHWAY,5,LEFT
A2,,128.8km North of Wentworth,-33.06719,WENTWORTH,140,141.64336,WESTERN REGION,,SCOTIA,,SILVER CITY HIGHWAY,22,RIGHT
A1,,223km from West Wyalong and  32km to Hay,-34.3321,HAY,830,145.06648,SOUTH WEST REGION,,HAY,,MID WESTERN HIGHWAY,6,LEFT
C1,,30km South of Mittagong,-34.6082,WINGECARRIBEE,1087,150.226,SOUTHERN REGION,,SUTTON FOREST,,HUME HIGHWAY,2,RIGHT
A2,,118km from Cooma and  63km to Tumut,-35.65233,SNOWY VALLEYS,450,148.46303,SOUTH WEST REGION,,YARRANGOBILLY,,SNOWY MOUNTAINS HIGHWAY,4,LEFT
A1,,64km from Mudgee turnoff,-32.95856,MID WESTERN REGIONAL,1090,149.85784,WESTERN REGION,,ILFORD,,CASTLEREAGH HIGHWAY,18,LEFT
A3,,40.3km North of Tamworth (3.2km South of Barraba),-30.42085,TAMWORTH,160,150.6163,NORTHERN REGION,,RED HILL,,TAMWORTH-YETMAN RD,63,RIGHT
A1,PHYSICAL SEPARATION,66km from Euston and 13km to Mildura (VIC),-34.22162,WENTWORTH,590,142.2479,SOUTH WEST REGION,,TRENTHAM CLIFFS,,STURT HIGHWAY,14,LEFT
A2,,6.5km North of Coonabarabran,-31.23462,COONABARABRAN,3100,149.31734,WESTERN REGION,,COONABARABRAN,,NEWELL HIGHWAY,17,RIGHT
A2,,43km from Gundagai and  38km to Wagga Wagga,-35.18676,WAGGA WAGGA,25,147.74402,SOUTH WEST REGION,,BORAMBOLA,,STURT HIGHWAY,14,RIGHT
A2,,43km South of Eden,-37.36932,BEGA VALLEY,2600,149.71491,SOUTHERN REGION,,TIMBILLICA,,PRINCES HIGHWAY,1,RIGHT
A1,,27km from Echuca (VIC) and  49km to Deniliquin,-35.93408,MURRAY RIVER,40,144.89815,SOUTH WEST REGION,,MATHOURA,,COBB HIGHWAY,21,RIGHT
A1,MAIN CARRIAGEWAY,26km from Wentworth and  240km to Broken Hill,-33.92618,WENTWORTH,100,141.79607,SOUTH WEST REGION,,ANABRANCH SOUTH,,SILVER CITY HIGHWAY,22,LEFT
A2,PHYSICAL SEPARATION,141.5km West of Wauchope,-31.07644,WALCHA,410,151.77762,NORTHERN REGION,,WALCHA,,OXLEY HIGHWAY,11,LEFT
A1,,18.7km South of Forbes,-33.48495,FORBES,2530,147.81596,WESTERN REGION,,FORBES,,NEWELL HIGHWAY,17,RIGHT
A1,,24km NW of SH11 Nevertire,-31.72582,WARREN,950,147.50498,WESTERN REGION,,MULLENGUDGERY,,MITCHELL HIGHWAY,7,LEFT
A1,,45km from Ardlethan and  40km to Griffith,-34.25274,NARRANDERA,320,146.44951,SOUTH WEST REGION,,BARELLAN,,BURLEY GRIFFIN WAY,84,RIGHT
A1,,40.1km West of Cobar,-31.53487,COBAR,110,145.39959,WESTERN REGION,,CUBBA,,BARRIER HIGHWAY,8,RIGHT
A1,,Narrabri tourist Information Centre,-30.32312,NARRABRI,3191,149.78074,WESTERN REGION,,NARRABRI,,TIBBEREENA ST,17,LEFT
B2,,8km North of Goulburn,-34.76071,GOULBURN MULWAREE,1185,149.76666,SOUTHERN REGION,,BOXERS CREEK,,HUME HIGHWAY,2,LEFT
A2,,38km from Tumbarumba and  31km to Tumut,-35.51659,SNOWY VALLEYS,140,148.14536,SOUTH WEST REGION,,BATLOW,,BATLOW RD,85,LEFT
A1,,16.4km South of Moree (Heber ST),-29.59968,MOREE PLAINS,3270,149.81184,WESTERN REGION,,MOREE,,NEWELL HIGHWAY,17,RIGHT
B3,,56km North of Canberra,-34.91166,GREATER ARGYLE,1070,149.44313,SOUTHERN REGION,,COLLECTOR,,FEDERAL HIGHWAY,3,LEFT
A1,,4.7km North of Coonabarabran,-31.24761,COONABARABRAN,3090,149.30897,WESTERN REGION,,COONABARABRAN,,NEWELL HIGHWAY,17,LEFT
A3,,52km from Bathurst,-33.31086,ORANGE,120,149.13942,WESTERN REGION,,ORANGE,,MITCHELL HIGHWAY,7,RIGHT
A1,,36.9km from Mudgee turnoff,-33.14689,LITHGOW,1065,149.98452,WESTERN REGION,,CAPERTEE,,CASTLEREAGH HIGHWAY,18,LEFT
A1,,60km from Deniliquin and  62km to Hay,-35.05359,EDWARD RIVER,160,144.77904,SOUTH WEST REGION,,WANGANELLA,,COBB HIGHWAY,21,LEFT
A2,,At Bredbo,-35.95218,SNOWY MONARO REGIONAL,1300,149.14567,SOUTHERN REGION,,BREDBO,,MONARO HIGHWAY,19,LEFT
A1,PHYSICAL SEPARATION,23km from Euston and  55km to Mildura (VIC),-34.46432,BALRANALD,570,142.54036,SOUTH WEST REGION,,MALLEE,,STURT HIGHWAY,14,LEFT
A1,,,-28.85202,MOREE PLAINS,3370,150.21904,WESTERN REGION,,BOGGABILLA,,NEWELL HIGHWAY,17,LEFT
A2,,130.5km West of Nyngan,-31.49878,COBAR,70,145.84495,WESTERN REGION,,COBAR,,BARRIER HIGHWAY,8,LEFT
A1,,49.58km East of Dubbo (Bourke St),-32.11089,DUBBO REGIONAL,400,149.03861,WESTERN REGION,,ELONG ELONG,,DUNEDOO-DUBBO RD,27,LEFT
A2,PHYSICAL SEPARATION,158.5km West of Wauchope,-31.00354,WALCHA,420,151.63013,NORTHERN REGION,,WALCHA,,OXLEY HIGHWAY,11,RIGHT
A2,,94.25km West of Nyngan,-31.53063,COBAR,50,146.22069,WESTERN REGION,,CANBELEGO,,BARRIER HIGHWAY,8,RIGHT
A2,,81km West of Cooma,-35.89595,SNOWY MONARO REGIONAL,381,148.54046,SOUTHERN REGION,,KOSCIUSZKO NATIONAL PARK,,SNOWY MOUNTAINS HIGHWAY,4,LEFT
A1,,35km from Lithgow,-33.54738,BLUE MOUNTAINS,551,150.42427,SYDNEY WEST ZONE,,MOUNT TOMAH,,BELLS LINE OF RD,184,LEFT
A1,,6km South of Thredbo,-36.52421,SNOWY MONARO REGIONAL,40,148.26004,SOUTHERN REGION,,KOSCIUSZKO,,ALPINE WAY,677,LEFT
A1,PHYSICAL SEPARATION,15.6km West of Grafton,-29.65221,CLARENCE VALLEY,150,152.79973,NORTHERN REGION,,RAMORNIE,,GWYDIR HIGHWAY,12,LEFT
A2,,161.8km West of Wilcannia,-31.88086,UNINCORPORATED NSW,385,141.78895,WESTERN REGION,,BROKEN HILL,,BARRIER HIGHWAY,8,LEFT
C1,,79km from Gundagai and 101km to Albury,-35.50582,WAGGA WAGGA,2075,147.56427,SOUTH WEST REGION,,KYEAMBA,,HUME HIGHWAY,2,RIGHT
A1,,44.4km West of Cobar,-31.53832,COBAR,110,145.35403,WESTERN REGION,,CUBBA,,BARRIER HIGHWAY,8,LEFT
A1,,Blayney-Heritage Park,-33.53794,BLAYNEY,110,149.25442,WESTERN REGION,,BLAYNEY,,ADELAIDE ST,6,LEFT
A1,,22.9km East of Oberon,-33.67712,LITHGOW,10,150.05001,WESTERN REGION,,HAMPTON,,NR HAMPTON-NR OBERON RD,558,LEFT
A2,,1.4km North of Walgett,-30.00475,WALGETT,3240,148.13836,WESTERN REGION,,WALGETT,,CASTLEREAGH HIGHWAY,18,RIGHT
A2,,5km North of Bega,-36.64486,BEGA VALLEY,2290,149.82359,SOUTHERN REGION,,ANGLEDALE,,PRINCES HWY,1,LEFT
A3,,60.7km West of Cobar,-31.55904,COBAR,120,145.18751,WESTERN REGION,,CUBBA,,BARRIER HIGHWAY,8,RIGHT
A1,,Topar Roadhouse,-31.78025,UNINCORPORATED NSW,350,142.22736,WESTERN REGION,,LITTLE TOPAR,,BARRIER HIGHWAY,8,RIGHT
B1,,400m north from Camden Valley Way,-33.953,LIVERPOOL,375,150.874,SYDNEY WEST ZONE,,PRESTONS,,CAMDEN VALLEY WAY,620,LEFT
A1,,10km South of Parkes,-33.20927,PARKES,2631,148.12516,WESTERN REGION,,PARKES,,NEWELL HIGHWAY,17,RIGHT
A1,PHYSICAL SEPARATION,16km from Narrandera and 158km to Hay,-34.70804,NARRANDERA,241,146.41612,SOUTH WEST REGION,,EUROLEY,,STURT HIGHWAY,14,LEFT
A1,,3.5km NW of Narromine (Burroway St),-32.21594,NARROMINE,830,148.2157,WESTERN REGION,,NARROMINE,,MITCHELL HIGHWAY,7,LEFT
A1,,48.4km from Lithgow,-33.49628,HAWKESBURY,471,150.51733,SYDNEY WEST ZONE,,BILPIN,,BELLS LINE OF RD,184,RIGHT
B2,,5km North of Marulan,-34.68897,WINGECARRIBEE,1105,150.04131,SOUTHERN REGION,,MARULAN,,HUME HIGHWAY,2,LEFT
A1,,135km from Cooma and 46km to Tumut,-35.59461,SNOWY VALLEYS,472,148.35626,SOUTH WEST REGION,,TALBINGO,,SNOWY MOUNTAINS HIGHWAY,4,RIGHT
C3,,49km South of Goulburn,-35.03562,QUEANBEYAN-PALERANG,1052,149.37741,SOUTHERN REGION,,LAKE GEORGE,,FEDERAL HIGHWAY,3,RIGHT
A1,,39km from Orange,-33.0555,CABONNE,405,148.86221,WESTERN REGION,,MOLONG,,WELLINGTON RD,7,LEFT
A1,PHYSICAL SEPARATION,56km from Hay and  76km to Balranald,-34.6317,HAY,400,144.29551,SOUTH WEST REGION,,MAUDE,,STURT HIGHWAY,14,RIGHT
A1,,49km from Albury and 0km to Culcairn,-35.672,GREATER HUME,60,147.0361,SOUTH WEST REGION,,CULCAIRN,,OLYMPIC HIGHWAY,78,LEFT
A1,,2.23km North of Coonamble (Aberford St),-30.94498,COONAMBLE,3140,148.37575,WESTERN REGION,,COONAMBLE,,CASWELL ST,18,LEFT
A2,,38.6km South of Coonabarabran,-31.43012,GILGANDRA,3020,149.06707,WESTERN REGION,,GOWANG,,NEWELL HIGHWAY,17,LEFT
A1,PHYSICAL SEPARATION,68km from Hay and  64km to Balranald,-34.66417,HAY,410,144.16295,SOUTH WEST REGION,,MAUDE,,STURT HIGHWAY,14,LEFT
A3,,31km from Yass and  35km to Harden,-34.70305,YASS VALLEY,40,148.65447,SOUTH WEST REGION,,BINALONG,,BURLEY GRIFFIN WAY,84,RIGHT
A1,,45.7km South of Narrabri (Newell Hwy),-30.63631,NARRABRI,250,150.03332,WESTERN REGION,,BOGGABRI,,KAMILAROI HIGHWAY,29,LEFT
A2,,54.1km from Molong,-32.62327,DUBBO REGIONAL,470,148.94808,WESTERN REGION,,APSLEY,,MITCHELL HIGHWAY,7,RIGHT
A1,,6.6km West of Dorrigo (38.6km East of Ebor),-30.34716,BELLINGEN,120,152.65067,NORTHERN REGION,,FERNBROOK,,WATERFALL WAY,76,RIGHT
A1,,53.2km from Bathurst,-33.81763,BATHURST REGIONAL,195,149.32441,WESTERN REGION,,TRUNKEY CREEK,,ARTHUR ST,54,RIGHT
C3,,30km South of Campbelltown,-34.28357,WOLLONDILLY,836,150.63704,SOUTHERN REGION,,PHEASANTS NEST,,HUME HIGHWAY,2,RIGHT
A1,,16.5km from Bathurst,-33.52651,OBERON,191,149.72387,WESTERN REGION,,O'CONNELL,,HARTLEY-JENOLAN CAVES-BATHURST,253,LEFT
A1,PHYSICAL SEPARATION,29km from Mildura (VIC) and  4km to Wentworth,-34.11366,WENTWORTH,50,141.96007,SOUTH WEST REGION,,CURLWAA,,SILVER CITY HIGHWAY,22,RIGHT
A1,,33.08km East of Dubbo (Bourke St),-32.19215,DUBBO REGIONAL,425,148.9123,WESTERN REGION,,BALLIMORE,,DUNEDOO-DUBBO RD,27,LEFT
B1,,1km South of Marulan,-34.71709,GOULBURN MULWAREE,1135,150.00238,SOUTHERN REGION,,MARULAN,,S/B HUME HIGHWAY,2,LEFT
A1,MAIN CARRIAGEWAY,79.4km North of Grafton,-29.45025,SEVERN,210,152.36809,NORTHERN REGION,,GIBRALTAR RANGE,,GWYDIR HIGHWAY,12,LEFT
A3,,53.6km West of Cobar,-31.54336,COBAR,120,145.28118,WESTERN REGION,,CUBBA,,BARRIER HIGHWAY,8,RIGHT
B1,,87km from Gundagai and  92km to Albury,-35.57632,GREATER HUME,2075,147.53347,SOUTH WEST REGION,,LITTLE BILLABONG,,HUME HIGHWAY,2,LEFT
C2,,69km South of Goulburn,-35.17645,QUEANBEYAN-PALERANG,1031,149.28437,SOUTHERN REGION,,BYWONG,,FEDERAL HIGHWAY,3,RIGHT
A1,,1.8km West of Cobar,-31.49783,COBAR,90,145.82001,WESTERN REGION,,COBAR,,BARRIER HIGHWAY,8,LEFT
A1,,42km from Finley and 17km to Deniliquin,-35.57117,EDWARD RIVER,1450,145.12656,SOUTH WEST REGION,,WARRAGOON,,RIVERINA HIGHWAY,20,RIGHT
A1,,10.3km East of Mandurama,-33.59879,BLAYNEY,150,149.16598,WESTERN REGION,,CARCOAR,,MID WESTERN HIGHWAY,6,LEFT
A1,,110.17km North of Kempsey,-30.2999,COFFS HARBOUR,2500,153.11099,NORTHERN REGION,,COFFS HARBOUR,,GRAFTON STREET,10,LEFT
A1,,51.5km South of Narrabri,-30.72244,NARRABRI,3120,149.52486,WESTERN REGION,,THE PILLIGA,,NEWELL HIGHWAY,17,RIGHT
C1,PHYSICAL SEPARATION,,-31.24858,KEMPSEY,2245,152.82243,NORTHERN REGION,,COOPERABUNG,,PACIFIC HIGHWAY,10,RIGHT
A2,,155.2km West of Cobar,-31.65265,CENTRAL DARLING,180,144.26791,WESTERN REGION,,WILCANNIA,,BARRIER HIGHWAY,8,RIGHT
A1,,Cowra,-33.83569,COWRA,660,148.67949,WESTERN REGION,,COWRA,,YOUNG RD,78,LEFT
A1,,17.2km North of Tamworth,-31.0441,TAMWORTH,1000,151.056,NORTHERN REGION,,KOOTINGAL,,NEW ENGLAND HIGHWAY,9,RIGHT
B3,,75km North of Canberra,-34.81539,GREATER ARGYLE,1080,149.60333,SOUTHERN REGION,,YARRA,,FEDERAL HIGHWAY,3,LEFT
A2,PHYSICAL SEPARATION,65km from Balranald and 15km to Euston,-34.51901,BALRANALD,530,142.87618,SOUTH WEST REGION,,EUSTON,,STURT HIGHWAY,14,LEFT
A1,,1.3km West of Cudal,-33.2908,CABONNE,60,148.71433,WESTERN REGION,,CUDAL,,BOREE-EUGOWRA RD,377,LEFT
A3,,20.28km from Lithgow,-33.45544,LITHGOW,1660,149.9771,WESTERN REGION,,MOUNT LAMBIE,,GREAT WESTERN HIGHWAY,5,RIGHT
A3,,10.73km from Bathurst,-33.41783,BATHURST REGIONAL,60,149.45796,WESTERN REGION,,THE ROCKS,,MITCHELL HIGHWAY,7,LEFT
B2,PHYSICAL SEPARATION,38.6km North of Kempsey,-30.8133,NAMBUCCA,2325,152.871,NORTHERN REGION,,EUNGAI CREEK,,PACIFIC HIGHWAY,10,LEFT
A1,,57km from Lithgow,-33.51646,HAWKESBURY,461,150.60246,SYDNEY WEST ZONE,,KURRAJONG HEIGHTS,,BELLS LINE OF RD,184,LEFT
A1,,At Nimmitabel,-36.51496,SNOWY MONARO REGIONAL,1170,149.28275,SOUTHERN REGION,,NIMMITABEL,,BOMBALA ST,19,LEFT
C3,,141km from Gundagai and  39km to Albury,-35.89343,GREATER HUME,2185,147.16953,SOUTH WEST REGION,,MULLENGANDRA,,HUME HIGHWAY,2,RIGHT
A1,PHYSICAL SEPARATION,89km from Narrandera and  84km to Hay,-34.52367,MURRUMBIDGEE,310,145.70091,SOUTH WEST REGION,,DARLINGTON POINT,,STURT HIGHWAY,14,LEFT
A1,,Trangie - Goan Water Hole,-32.03127,NARROMINE,882,147.98707,WESTERN REGION,,TRANGIE,,MITCHELL HIGHWAY,7,RIGHT
A1,,1km NorthWest of Coolabah,-31.01523,BOGAN,1075,146.70333,WESTERN REGION,,COOLABAH,,MITCHELL HIGHWAY,7,RIGHT
A1,,60km from Gundagai and  21km to Wagga Wagga,-35.16144,WAGGA WAGGA,30,147.58237,SOUTH WEST REGION,,ALFREDTOWN,,STURT HIGHWAY,14,LEFT
C4,,4km South of Kiama,-34.70236,KIAMA,1448,150.83557,SOUTHERN REGION,,KIAMA HEIGHTS,,PRINCES HIGHWAY,1,LEFT
A1,,21.9km South of Enngonia,-29.50249,BOURKE,1270,145.81174,WESTERN REGION,,ENNGONIA,,MITCHELL HIGHWAY,7,RIGHT
B1,,30km South of Mittagong,-34.60686,WINGECARRIBEE,1087,150.22817,SOUTHERN REGION,,SUTTON FOREST,,HUME HIGHWAY,2,LEFT
A1,,7.3km North of Moree,-29.42219,MOREE PLAINS,3325,149.8983,WESTERN REGION,,MOREE,,NEWELL HIGHWAY,17,LEFT
B1,,13km South of Goulburn,-34.80689,GOULBURN MULWAREE,1305,149.60293,SOUTHERN REGION,,YARRA,,HUME HWY S/BOUND,2,LEFT
A2,,37km from Gundagai and  44km to Wagga Wagga,-35.21796,WAGGA WAGGA,25,147.78943,SOUTH WEST REGION,,TARCUTTA,,STURT HIGHWAY,14,RIGHT
A4,,36km from West Wyalong and  68km to Forbes,-33.76415,BLAND,2490,147.51929,SOUTH WEST REGION,,BACK CREEK,,NEWELL HIGHWAY,17,RIGHT
A3,,1km South of Eden,-37.06406,BEGA VALLEY,2530,149.8947,SOUTHERN REGION,,EDEN,,BOYD ST,1,RIGHT
A1,,36km from Tumbarumba and  33km to Tumut,-35.53284,SNOWY VALLEYS,100,148.1404,SOUTH WEST REGION,,BATLOW,,BATLOW RD,85,LEFT
A1,,0.2km West of Walcha,-30.9851,WALCHA,455,151.59135,NORTHERN REGION,,WALCHA,,FITZROY STREET,11,LEFT
A3,,36.8km West of Broken Hill,-32.04582,UNINCORPORATED NSW,510,141.12766,WESTERN REGION,,BROKEN HILL,,BARRIER HIGHWAY,8,LEFT
A1,,37km South of Nowra,-35.60048,SHOALHAVEN,1870,150.25522,SOUTHERN REGION,,EAST LYNNE,,PRINCES HIGHWAY,1,LEFT
A1,,4km North of Stanwell Park,-34.21072,WOLLONGONG,20,151.01109,SOUTHERN REGION,,OTFORD,,LADY WAKEHURST DR,393,RIGHT
A1,,67.81km East of Dubbo (Bourke St),-32.1059,COONABARABRAN,370,149.21036,WESTERN REGION,,DUNEDOO,,DUNEDOO-DUBBO RD,27,RIGHT
A1,,Narromine,-32.23521,NARROMINE,790,148.24658,WESTERN REGION,,NARROMINE,,BURRAWAY ST,7,RIGHT
A1,,4km from Temora and  64km to West Wyalong,-34.41298,TEMORA,100,147.51395,SOUTH WEST REGION,,TEMORA,,GOLDFIELDS WAY,57,RIGHT
C1,,113km north of Taree,-31.12917,KEMPSEY,2270,152.82736,NORTHERN REGION,,SOUTH KEMPSEY,,Pacific Highway,10,RIGHT
A2,,17km South of Batemans Bay,-35.84486,EUROBODALLA,2000,150.1309,SOUTHERN REGION,,BIMBIMBIE,,PRINCES HIGHWAY,1,RIGHT
A3,,16.2km from Bathurst,-33.42441,BATHURST REGIONAL,60,149.40501,WESTERN REGION,,THE ROCKS,,MITCHELL HIGHWAY,7,LEFT
A1,PHYSICAL SEPARATION,45.9km North of Casino,-28.90087,KYOGLE,340,152.65415,NORTHERN REGION,,SANDILANDS,,BRUXNER HIGHWAY,16,RIGHT
A2,,6km South of Forbes,-33.42969,FORBES,2540,147.92631,WESTERN REGION,,FORBES,,NEWELL HIGHWAY,17,RIGHT
A1,PHYSICAL SEPARATION,132.3km North of Muswellbrook,-31.2972,TAMWORTH,860,150.90183,NORTHERN REGION,,GOONOO GOONOO,,NEW ENGLAND HIGHWAY,9,RIGHT
A1,,7.4km North of Armidale,-30.48913,ARMIDALE REGIONAL,1215,151.67448,NORTHERN REGION,,ARMIDALE,,NEW ENGLAND HIGHWAY,9,LEFT
C3,,134km from Gundagai and  46km to Albury,-35.83944,GREATER HUME,2185,147.2031,SOUTH WEST REGION,,WOOMARGAMA,,HUME HIGHWAY,2,RIGHT
A1,,1.1km North of Barraba,-30.3708,TAMWORTH,205,150.60699,NORTHERN REGION,,BARRABA,,QUEEN STREET,63,RIGHT
A1,,93.4km North of Mount Hope,-32.04432,COBAR,105,145.99856,WESTERN REGION,,NYMAGEE,,KIDMAN WAY,410,LEFT
A1,,49km from Hillston and  206km to Cobar,-33.23794,CARRATHOOL,15,145.86037,SOUTH WEST REGION,,WALLANTHERY,,KIDMAN WAY,410,LEFT
A1,,0km from Culcairn and 77km to Wagga Wagga,-35.66648,GREATER HUME,90,147.03889,SOUTH WEST REGION,,CULCAIRN,,MELVILLE ST,78,LEFT
A3,,66.85km from Dubbo (SH7),-32.69767,PARKES,2760,148.19063,WESTERN REGION,,PEAK HILL,,CASWELL ST,17,RIGHT
A1,,22km South of Jindabyne,-36.45058,SNOWY MONARO REGIONAL,20,148.42309,SOUTHERN REGION,,KOSCIUSZKO NATIONAL PARK,,ALPINE WAY,677,RIGHT
A2,,26km South of Nowra,-35.08522,SHOALHAVEN,1660,150.53366,SOUTHERN REGION,,BEWONG,,PRINCES HIGHWAY,1,RIGHT
A2,,Manildra,-33.18628,CABONNE,60,148.69493,WESTERN REGION,,MANILDRA,,ORANGE-PARKES RD,61,LEFT
A1,,179km from West Wyalong and  76km to Hay,-34.05132,CARRATHOOL,810,145.38959,SOUTH WEST REGION,,GUNBAR,,MID WESTERN HIGHWAY,6,RIGHT
B2,,12km from Gundagai and 168km to Albury,-35.13617,COOTAMUNDRA-GUNDAGAI REGIONAL,1945,148.00928,SOUTH WEST REGION,,TUMBLONG,,HUME HIGHWAY,2,LEFT
C2,,25km South of Mittagong,-34.56216,WINGECARRIBEE,1045,150.25534,SOUTHERN REGION,,SUTTON FOREST,,HUME HIGHWAY,2,RIGHT
A3,,13km West of Braidwood,-35.34333,QUEANBEYAN-PALERANG,105,149.73705,SOUTHERN REGION,,LARBERT,,BATEMANS BAY-QUEANBEYAN RD,51,LEFT
A2,,38.4km North of Moree,-29.18249,MOREE PLAINS,3340,150.00993,WESTERN REGION,,MOREE,,NEWELL HIGHWAY,17,RIGHT
A1,,Nyngan,-31.56364,BOGAN,980,147.20084,WESTERN REGION,,NYNGAN,,NYMAGEE ST,7,RIGHT
C1,,31km South of Mittagong,-34.61686,WINGECARRIBEE,1087,150.2148,SOUTHERN REGION,,SUTTON FOREST,,HUME HIGHWAY,2,RIGHT
A1,PHYSICAL SEPARATION,67km from Wentworth and  200km to Broken Hill,-33.58071,WENTWORTH,120,141.75593,SOUTH WEST REGION,,ANABRANCH SOUTH,,SILVER CITY HIGHWAY,22,RIGHT
A2,,25.1km East of Blayney,-33.45356,BATHURST REGIONAL,40,149.49455,WESTERN REGION,,EVANS PLAINS,,MID WESTERN HIGHWAY,6,LEFT
A2,,13.3km from Orange,-33.16291,CABONNE,270,149.01005,WESTERN REGION,,BELGRAVIA,,MOLONG RD,7,LEFT
A2,,37km South of Nowra,-35.14597,SHOALHAVEN,1670,150.46102,SOUTHERN REGION,,TULLARWALLA,,PRINCES HIGHWAY,1,RIGHT
B3,,30km South of Campbelltown,-34.28342,WOLLONDILLY,836,150.64188,SOUTHERN REGION,,PHEASANTS NEST,,HUME HIGHWAY,2,LEFT
A1,PHYSICAL SEPARATION,5km from Mildura (VIC) and  28km to Wentworth,-34.15133,WENTWORTH,10,142.18024,SOUTH WEST REGION,,MOURQUONG,,SILVER CITY HIGHWAY,22,LEFT
A1,,89.9km North of Ivanhoe,-32.26956,CENTRAL DARLING,435,143.83256,WESTERN REGION,,IVANHOE,,COBB HIGHWAY,21,RIGHT
A2,,62.8km from Lithgow,-33.53773,HAWKESBURY,451,150.63307,SYDNEY WEST ZONE,,KURRAJONG HEIGHTS,,BELLS LINE OF RD,184,RIGHT
A1,PHYSICAL SEPARATION,80.4km West of Wauchope,-31.40262,PORT MACQUARIE - HASTINGS,360,152.12402,NORTHERN REGION,,DOYLES RIVER,,OXLEY HIGHWAY,11,LEFT
A2,,55.2km from Coona turn off,-31.81797,COONABARABRAN,10,149.11786,WESTERN REGION,,MENDOORAN,,MENDOORAN-BELAR CREEK RD,334,RIGHT
A2,,212.5km West of Cobar,-31.69519,CENTRAL DARLING,215,143.74002,WESTERN REGION,,WILCANNIA,,BARRIER HIGHWAY,8,RIGHT
A2,,Manildra East,-33.18651,CABONNE,60,148.7019,WESTERN REGION,,MANILDRA,,ORANGE-PARKES RD,61,LEFT
A1,PHYSICAL SEPARATION,74.3km North of Quirindi,-31.02524,GUNNEDAH,145,150.27444,NORTHERN REGION,,GUNNEDAH,,KAMILAROI HIGHWAY,29,RIGHT
A1,,15.8km North of Gilgrandra,-31.60706,GILGANDRA,2985,148.75496,WESTERN REGION,,BIDDON,,NEWELL HIGHWAY,17,LEFT
A2,,8.7km South of Gilgrandra,-31.81827,GILGANDRA,2940,148.63942,WESTERN REGION,,GILGANDRA,,NEWELL HIGHWAY,17,RIGHT
A1,,9.2km North of Gunnedah,-30.9231,GUNNEDAH,201,150.18741,NORTHERN REGION,,GUNNEDAH,,KAMILAROI HIGHWAY,29,LEFT
A1,,251km from West Wyalong and  4km to Hay,-34.49043,HAY,840,144.87727,SOUTH WEST REGION,,HAY,,MID WESTERN HIGHWAY,6,RIGHT
A1,,30.8km South of Boggabri,-30.935,GUNNEDAH,201,150.2005,NORTHERN REGION,,GUNNEDAH,,KAMILAROI HIGHWAY,29,RIGHT
C2,,32km South of Goulburn,-34.82248,UPPER LACHLAN,1325,149.3991,SOUTHERN REGION,,BREADALBANE,,HUME HIGHWAY,2,RIGHT
A2,,0.2km East of Condobolin,-33.07858,LACHLAN,290,147.17767,WESTERN REGION,,CONDOBOLIN,,CONDOBOLIN-TULLAMORE RD,61,LEFT
B4,,66.3km from Lithgow,-33.70289,BLUE MOUNTAINS,1290,150.53125,SYDNEY WEST ZONE,,FAULCONBRIDGE,,GREAT WESTERN HWY,5,LEFT
A2,,20km South of Batemans Bay,-35.86492,EUROBODALLA,2011,150.1195,SOUTHERN REGION,,MORUYA,,PRINCES HIGHWAY,1,LEFT
A2,,At Bombala,-36.90849,SNOWY MONARO REGIONAL,1090,149.23914,SOUTHERN REGION,,BOMBALA,,MAHRATTA ST,19,RIGHT
A1,,108km from Griffith and  2km to Hillston,-33.50452,CARRATHOOL,290,145.53221,SOUTH WEST REGION,,HILLSTON,,KIDMAN WAY,80,RIGHT
A2,,3km East of Cobar,-31.5038,COBAR,60,145.88811,WESTERN REGION,,COBAR,,BARRIER HIGHWAY,8,RIGHT
A3,,7.1km East of Brewarrina Bridge,-29.91588,BREWARRINA,680,146.92693,WESTERN REGION,,BREWARRINA,,KAMILAROI HIGHWAY,29,RIGHT
A2,,48.6km West of Topar Roadhouse,-31.8959,UNINCORPORATED NSW,385,141.72397,WESTERN REGION,,BROKEN HILL,,BARRIER HIGHWAY,8,RIGHT
C1,,53km from Gundagai and 126km to Albury,-35.31702,WAGGA WAGGA,2045,147.6599,SOUTH WEST REGION,,TARCUTTA,,HUME HIGHWAY,2,RIGHT
A2,,29km from Orange,-33.12389,CABONNE,300,148.90868,WESTERN REGION,,MOLONG,,MOLONG RD,7,RIGHT
A1,,152.4km West of Grafton,-29.72621,SEVERN,261,151.78989,NORTHERN REGION,,SHANNON VALE,,GWYDIR HIGHWAY,12,LEFT
A1,,66.4km West of Topar Roadhouse,-31.91288,BROKEN HILL,390,141.54841,WESTERN REGION,,BROKEN HILL,,BARRIER HIGHWAY,8,LEFT
C1,,5.5km North of Kiama,-34.6348,SHELLHARBOUR,1362,150.83264,SOUTHERN REGION,,DUNMORE,,NB FROM NTH KIAMA DR,1,RIGHT
A1,,1km South Casino,-28.8691,RICHMOND VALLEY,270,153.04401,NORTHERN REGION,,CASINO,,CENTRE STREET,16,RIGHT
A1,,77km West of Casino,-28.92741,TENTERFIELD,410,152.37548,NORTHERN REGION,,DRAKE VILLAGE,,FAIRFIELD STREET,16,LEFT
A2,,1km from  Bethanga  and 15km to Albury,-36.08942,ALBURY,1011,147.0495,SOUTH WEST REGION,,LAKE HUME VILLAGE,,RIVERINA HIGHWAY,20,LEFT
A1,MAIN CARRIAGEWAY,3km from Hay and 129km to Balranald,-34.51984,HAY,380,144.81998,SOUTH WEST REGION,,HAY SOUTH,,STURT HIGHWAY,14,RIGHT
C1,,3.5km South of Nowra,-34.90669,SHOALHAVEN,1621,150.60269,SOUTHERN REGION,,SOUTH NOWRA,,Princes Highway,1,RIGHT
A2,,At Bombala,-36.90654,SNOWY MONARO REGIONAL,1090,149.24121,SOUTHERN REGION,,BOMBALA,,MAHRATTA ST,19,RIGHT
A2,PHYSICAL SEPARATION,62.3km West of Dorrigo,-30.50027,ARMIDALE REGIONAL,200,152.25331,NORTHERN REGION,,WOLLOMOMBI,,WATERFALL WAY,76,LEFT
A3,,66km West of Crookwell,-34.02258,UPPER LACHLAN,160,149.33312,SOUTHERN REGION,,TUENA,,GOULBURN - ILFORD ROAD,54,RIGHT
A1,PHYSICAL SEPARATION,124km from Hay and 8km to Balranald,-34.6996,MURRAY RIVER,441,143.5906,SOUTH WEST REGION,,YANGA,,STURT HIGHWAY,14,LEFT
B1,,26km North of Canberra,-35.14329,QUEANBEYAN-PALERANG,1042,149.33405,SOUTHERN REGION,,BYWONG,,FEDERAL HIGHWAY,3,LEFT
A1,,90.8km West of Grafton,-29.5148,SEVERN,220,152.313,NORTHERN REGION,,GIBRALTAR RANGE,,GWYDIR HIGHWAY,12,LEFT
A2,,25km West of Goulburn,-34.58679,UPPER LACHLAN,60,149.58079,SOUTHERN REGION,,WAYO,,CROOKWELL ROAD,54,RIGHT
A1,,2.44km SouthEast of Nyngan,-31.58423,BOGAN,970,147.23865,WESTERN REGION,,NYNGAN,,MITCHELL HIGHWAY,7,RIGHT
A1,,55.1km North of Moree,-29.03819,MOREE PLAINS,3350,150.05347,WESTERN REGION,,MOREE,,NEWELL HIGHWAY,17,LEFT
A1,PHYSICAL SEPARATION,59.1km West of Glenn Innes,-29.7735,INVERELL,370,151.18851,NORTHERN REGION,,INVERELL,,GWYDIR HIGHWAY,12,RIGHT
A1,,84.3km North of Moree,-28.84042,MOREE PLAINS,3370,150.22609,WESTERN REGION,,BOGGABILLA,,NEWELL HIGHWAY,17,RIGHT
A2,,North Moree Webb Ave,-29.45717,MOREE PLAINS,675,149.8439,WESTERN REGION,,MOREE,,BALO ST,12,RIGHT
A2,,5916m from HW8 segment 446.,-31.58688,COBAR,130,144.87466,WESTERN REGION,,NOONA,,BARRIER HIGHWAY,8,LEFT
A2,,22km West of Molong,-32.91154,CABONNE,435,148.8907,WESTERN REGION,,LARRAS LEE,,MITCHELL HIGHWAY,7,RIGHT
A1,,123.9km West of Dorrigo,-30.51858,ARMIDALE REGIONAL,300,151.67155,NORTHERN REGION,,ARMIDALE,,BARNEY STREET,76,LEFT
A1,,19km South of Parkes,-33.27742,PARKES,2621,148.0971,WESTERN REGION,,DAROOBALGIE,,NEWELL HIGHWAY,17,LEFT
A1,,92.6km North of Grafton,-29.0735,RICHMOND VALLEY,3000,153.33878,NORTHERN REGION,,WOODBURN,,URALBA STREET,10,LEFT
A2,,89km from Hay and 120km to Ivanhoe,-33.77474,HAY,295,144.9231,SOUTH WEST REGION,,BOOLIGAL,,COBB HIGHWAY,21,RIGHT
A1,,16.5km South of Moree (Heber St),-29.59984,MOREE PLAINS,3270,149.8103,WESTERN REGION,,MOREE,,NEWELL HIGHWAY,17,LEFT
A1,,0.1km South of North limit (SH8),-31.71773,CENTRAL DARLING,490,143.46469,WESTERN REGION,,WILCANNIA,,COBB HIGHWAY,21,RIGHT
A2,,22km South of Bega,-36.8511,BEGA VALLEY,2383,149.81279,SOUTHERN REGION,,YELLOW PINCH,,PRINCES HIGHWAY,1,RIGHT
C1,,44.8km from Lithgow,-33.7098,BLUE MOUNTAINS,1398,150.35481,SYDNEY WEST ZONE,,WENTWORTH FALLS,,GREAT WESTERN HWY,5,RIGHT
B2,,8km South of Marulan,-34.74392,GOULBURN MULWAREE,1141,149.93107,SOUTHERN REGION,,MARULAN,,HUME HIGHWAY,2,LEFT
A1,,51km from Temora and 18km to West Wyalong,-34.03157,BLAND,160,147.31787,SOUTH WEST REGION,,BARMEDMAN,,GOLDFIELDS WAY,57,RIGHT
B2,MAIN CARRIAGEWAY,33km South of Goulburn,-34.82309,UPPER LACHLAN,1325,149.39775,SOUTHERN REGION,,BREADALBANE,,HUME HIGHWAY,2,LEFT
A2,,38.4km North of Moree,-29.18251,MOREE PLAINS,3340,150.00923,WESTERN REGION,,MOREE,,NEWELL HIGHWAY,17,LEFT
A1,,38.94km from Gilgandra (SH17),-31.42421,GILGANDRA,3050,148.51259,WESTERN REGION,,ARMATREE,,CASTLEREAGH HIGHWAY,18,LEFT
A1,,45.32km West of Moree,-29.56253,MOREE PLAINS,740,149.39549,WESTERN REGION,,MOREE,,GWYDIR HIGHWAY,12,RIGHT
A1,PHYSICAL SEPARATION,25.3km North of Gunnedah,-31.0631,GUNNEDAH,760,150,NORTHERN REGION,,MULLALEY,,OXLEY HIGHWAY,11,RIGHT
A1,,15.3km NorthWest of Byrock,-30.5437,BOURKE,1105,146.30482,WESTERN REGION,,BYROCK,,MITCHELL HIGHWAY,7,LEFT
A4,,19km from West Wyalong and  86km to Forbes,-33.85606,BLAND,2490,147.37711,SOUTH WEST REGION,,BACK CREEK,,NEWELL HIGHWAY,17,LEFT
A2,,20km from Tumbarumba and  89km to Wagga Wagga,-35.67028,GREATER HUME,21,147.86408,SOUTH WEST REGION,,ROSEWOOD,,TUMBARUMBA RD,284,RIGHT
A1,,7.3km South of Broken Hill,-32.00181,BROKEN HILL,205,141.43991,WESTERN REGION,,BROKEN HILL,,SILVER CITY HIGHWAY,22,LEFT
A2,,81.5km West of Nyngan,-31.53255,BOGAN,40,146.35087,WESTERN REGION,,CANBELEGO,,BARRIER HIGHWAY,8,RIGHT
A1,PHYSICAL SEPARATION,134km from Narrandera and  39km to Hay,-34.51298,MURRUMBIDGEE,330,145.24167,SOUTH WEST REGION,,CARRATHOOL,,STURT HIGHWAY,14,LEFT
A3,,6.5km South of Tamworth,-31.1319,TAMWORTH,895,150.924,NORTHERN REGION,,HILLVUE,,NEW ENGLAND HIGHWAY,9,LEFT
C1,,1km South of Marulan,-34.7196,GREATER ARGYLE,1135,149.9964,SOUTHERN REGION,,MARULAN,,N/B HUME HIGHWAY,2,RIGHT
B1,,23km South of Campbelltown,-34.15711,WOLLONDILLY,751,150.73875,SOUTHERN REGION,,MENANGLE,,HUME HIGHWAY,2,LEFT
A1,,27km West of Wollongong,-34.28941,WOLLONDILLY,75,150.72709,SOUTHERN REGION,,CATARACT,,PICTON RD,95,RIGHT
A1,PHYSICAL SEPARATION,74.1km West of Dorrigo,-30.50249,ARMIDALE REGIONAL,210,152.14524,NORTHERN REGION,,WOLLOMOMBI,,WATERFALL WAY,76,LEFT
A1,,31.55km South of Enngonia,-29.58574,BOURKE,1270,145.84167,WESTERN REGION,,NORTH BOURKE,,MITCHELL HIGHWAY,7,LEFT
A4,,43km From Bourke,-30.00391,BOURKE,750,146.35969,WESTERN REGION,,BOURKE,,KAMILAROI HIGHWAY,29,LEFT
A1,,Enngonia,-29.32082,BOURKE,1280,145.84687,WESTERN REGION,,ENNGONIA,,MITCHELL HIGHWAY,7,RIGHT
A3,,29.9km from Molong,-32.83403,DUBBO REGIONAL,440,148.90686,WESTERN REGION,,CUNDUMBUL,,MITCHELL HIGHWAY,7,LEFT
A1,,4.7km North of Coonabarabran,-31.2479,COONABARABRAN,3090,149.30903,WESTERN REGION,,COONABARABRAN,,NEWELL HIGHWAY,17,LEFT
C1,,8km West of Wollongong,-34.37434,WOLLONGONG,25,150.86121,SOUTHERN REGION,,CATARACT,,MT OUSLEY ROAD,95,RIGHT
A1,,47.0km West of Nyngan,-31.5477,BOGAN,30,146.71085,WESTERN REGION,,HERMIDALE,,BARRIER HIGHWAY,8,RIGHT
A1,,Cnr Macquarie and Erskine St (Newell Hwy),-32.24338,DUBBO REGIONAL,2863,148.60174,WESTERN REGION,,DUBBO,,ERSKINE ST,17,RIGHT
A2,,85km West of Casino,-28.92718,TENTERFIELD,420,152.31254,NORTHERN REGION,,SANDY HILL,,BRUXNER HIGHWAY,16,LEFT
A1,,146km from West Wyalong and 109km to Hay,-33.98187,CARRATHOOL,770,145.71063,SOUTH WEST REGION,,GOOLGOWI,,ZARA ST,6,LEFT
A1,,41.3km North of Grafton,-29.47233,CLARENCE VALLEY,2835,153.20503,NORTHERN REGION,,GULMARRAD,,PACIFIC HIGHWAY,10,LEFT
C1,PHYSICAL SEPARATION,0 km from Stadium Drive Coffs Harbour,-30.32068,COFFS HARBOUR,2490,153.08658,NORTHERN REGION,,COFFS HARBOUR,,PACIFIC HIGHWAY,10,RIGHT
R2,,74.05km North of Ballina,-28.25717,TWEED,3361,153.52767,NORTHERN REGION,,CHINDERAH,,PACIFIC HIGHWAY,10,LEFT
A1,PHYSICAL SEPARATION,68km from Albury and  78km to Finley,-35.81462,FEDERATION,1190,146.35716,SOUTH WEST REGION,,COREEN,,RIVERINA HIGHWAY,20,RIGHT
A2,PHYSICAL SEPARATION,115.1km North of Grafton,-28.93565,BALLINA,3090,153.47184,NORTHERN REGION,,WARDELL,,PACIFIC HIGHWAY,10,RIGHT
A3,PHYSICAL SEPARATION,74.7km North of Coffs Harbour,-29.74317,CLARENCE VALLEY,2670,152.99103,NORTHERN REGION,,CLARENZA,,PACIFIC HIGHWAY,10,RIGHT
B4,PHYSICAL SEPARATION,36.2km North of Ballina,-28.59784,BYRON,3231,153.54471,NORTHERN REGION,,TYAGARAH,,PACIFIC HIGHWAY - TYAGARAH,10,LEFT
A2,PHYSICAL SEPARATION,115.3km North of Grafton,-28.93424,BALLINA,3090,153.47228,NORTHERN REGION,,WARDELL,,PACIFIC HIGHWAY,10,LEFT
B1,PHYSICAL SEPARATION,6km from Wollongong,-34.37495,WOLLONGONG,25,150.86132,SOUTHERN REGION,,MOUNT KEIRA,,MT OUSLEY RD,95,LEFT
